location_no,listing_id,street,city,state,zipcode,latitude,longitude,is_location_exact
1,241032,Gilman Dr W,Seattle,WA,98119,47.63628904,-122.3710252,t
2,953595,"7th Avenue West,",Seattle,WA,98119,47.63912312,-122.3656665,t
3,3308979,"West Lee Street,",Seattle,WA,98119,47.62972413,-122.3694832,t
4,7421966,"8th Avenue West,",Seattle,WA,98119,47.6384732,-122.3692791,t
5,278830,"14th Ave W,",Seattle,WA,98119,47.6329184,-122.3724706,t
6,5956968,"West Comstock Street,",Seattle,WA,98119,47.63052548,-122.3661741,t
7,1909058,"10th Avenue West,",Seattle,WA,98119,47.63660545,-122.3685191,t
8,856550,"West Wheeler Street,",Seattle,WA,98119,47.64016054,-122.375856,t
9,4948745,Queen Anne Avenue North,Seattle,WA,98109,47.6324103,-122.3572161,t
10,2493658,"7th Avenue West,",Seattle,WA,98119,47.63749172,-122.3668886,t
11,175576,"1st Ave W,",Seattle,WA,98119,47.63548171,-122.3584778,t
12,4454295,"3rd Avenue West,",Seattle,WA,98119,47.63721408,-122.3600458,t
13,3883392,"West Howe Street,",Seattle,WA,98119,47.63554551,-122.3731708,t
14,8889257,"West Prospect Street,",Seattle,WA,98119,47.62950681,-122.3676293,t
15,5680462,"7th Avenue West,",Seattle,WA,98119,47.63920266,-122.3658627,t
16,8988178,"12th Avenue West,",Seattle,WA,98119,47.63564979,-122.3728928,f
17,3245876,"West Mercer Place,",Seattle,WA,98119,47.62620037,-122.3666019,t
18,4933447,"12th Avenue West,",Seattle,WA,98119,47.64064588,-122.3724059,t
19,7735464,"11th Avenue West,",Seattle,WA,98119,47.63977587,-122.3722354,t
20,6291829,"1st Avenue West,",Seattle,WA,98119,47.63602478,-122.3586936,t
21,9218403,"West Olympic Place,",Seattle,WA,98119,47.62794034,-122.3649587,f
22,4125779,"2nd Avenue West,",Seattle,WA,98119,47.63637426,-122.3610334,t
23,8942678,"1st Avenue West,",Seattle,WA,98119,47.63563222,-122.3588809,t
24,10106055,"West Galer Street,",Seattle,WA,98119,47.63339396,-122.3719199,t
25,6362362,"10th Avenue West,",Seattle,WA,98119,47.63851671,-122.369581,t
26,3544550,"7th Avenue West,",Seattle,WA,98119,47.63139735,-122.3677669,t
27,9025039,"West McGraw Street,",Seattle,WA,98119,47.63875224,-122.3679727,t
28,3200646,"West Wheeler Street,",Seattle,WA,98119,47.63926602,-122.3747258,t
29,8859380,"9th Avenue West,",Seattle,WA,98119,47.62990712,-122.3689481,t
30,4520099,"14th Avenue West,",Seattle,WA,98119,47.63981587,-122.3743385,t
31,2481869,"7th Avenue West,",Seattle,WA,98119,47.63900778,-122.3653201,t
32,1110749,"5th Avenue West,",Seattle,WA,98119,47.63508504,-122.3644435,t
33,5978498,"11th Avenue West,",Seattle,WA,98119,47.64063323,-122.3727094,t
34,5021081,"14th Avenue West,",Seattle,WA,98119,47.63812149,-122.37579,t
35,1686930,"West Galer Street,",Seattle,WA,98119,47.62981553,-122.3662123,t
36,7680289,"12th Avenue West,",Seattle,WA,98119,47.63981019,-122.3738006,t
37,7207641,"3rd Avenue West,",Seattle,WA,98119,47.63556952,-122.3616526,t
38,5062445,"West Howe Street,",Seattle,WA,98119,47.63497873,-122.3588694,t
39,8925878,"12th Avenue West,",Seattle,WA,98119,47.6393621,-122.3724026,t
40,6389657,"Queen Anne Avenue North, ",Seattle,WA,98109,47.63461628,-122.3580227,t
41,4218733,"W. Crockett St.,",Seattle,WA,98119,47.63800138,-122.3610048,t
42,2715623,"-11th Ave. W.,",Seattle,WA,98119,47.63199585,-122.3716577,t
43,1392332,"11th Avenue West,",Seattle,WA,98119,47.63868624,-122.3707999,t
44,7308567,"3rd Avenue West,",Seattle,WA,98119,47.63365004,-122.3604497,t
45,6575380,"1st Avenue North,",Seattle,WA,98109,47.63430018,-122.3570598,t
46,6004058,"West Olympic Place,",Seattle,WA,98119,47.62834387,-122.3664054,t
47,9550869,"10th Avenue West,",Seattle,WA,98119,47.63539394,-122.3689911,t
48,8515408,"3rd Avenue West,",Seattle,WA,98119,47.63803516,-122.3609101,t
49,5383192,"West Boston Street,",Seattle,WA,98119,47.63933159,-122.3615994,t
50,1112092,"6th Avenue West,",Seattle,WA,98119,47.63530805,-122.3665317,t
51,7772661,"10th Avenue West,",Seattle,WA,98119,47.63737488,-122.3694109,t
52,9254900,"13th Avenue West,",Seattle,WA,98119,47.63829757,-122.3737787,f
53,7714294,"10th Avenue West,",Seattle,WA,98119,47.63175344,-122.3712717,t
54,10310373,"14th Avenue West,",Seattle,WA,98119,47.63858056,-122.3753257,t
55,9368342,"8th Avenue West,",Seattle,WA,98119,47.63788372,-122.3673711,t
56,6361863,"3rd Avenue West,",Seattle,WA,98119,47.63751735,-122.3608117,t
57,8105221,"Gilman Drive West,",Seattle,WA,98119,47.63687418,-122.3722717,t
58,3269390,"6th Avenue West,",Seattle,WA,98119,47.63256274,-122.3672228,t
59,4566393,"7th Avenue West,",Seattle,WA,98119,47.63532192,-122.3661211,t
60,9282409,"9th Avenue West,",Seattle,WA,98119,47.63263391,-122.3693184,t
61,8095168,"10th Avenue West,",Seattle,WA,98119,47.63260004,-122.3699524,t
62,2746782,"West Wheeler Street,",Seattle,WA,98119,47.64105215,-122.3750817,t
63,6424982,"9th Avenue West,",Seattle,WA,98119,47.63140095,-122.3676901,t
64,762029,"W Wheeler St,",Seattle,WA,98119,47.64152493,-122.3761504,t
65,8988281,"5th Avenue West,",Seattle,WA,98119,47.6353107,-122.3635056,t
66,7077910,"28th Ave NW,",Seattle,WA,98107,47.66932717,-122.3925936,f
67,3772674,"Northwest 61st Street,",Seattle,WA,98107,47.67407416,-122.3938641,t
68,7021906,"Northwest 61st Street,",Seattle,WA,98107,47.67362807,-122.389302,t
69,7618605,"Northwest 56th Street,",Seattle,WA,98107,47.66845996,-122.379516,t
70,10234558,"NW 57th St,",Seattle,WA,98107,47.67066232,-122.3786659,f
71,7021702,"Northwest 59th Street,",Seattle,WA,98107,47.67264618,-122.389333,t
72,7680439,"Northwest 61st Street,",Seattle,WA,98107,47.67317538,-122.3822596,t
73,4258515,"Northwest Market Street,",Seattle,WA,98107,47.667933,-122.3786525,t
74,1148517,"26th Avenue Northwest,",Seattle,WA,98107,47.67296864,-122.3973382,t
75,2487892,"26th Avenue Northwest,",Seattle,WA,98107,47.66862742,-122.3894959,t
76,3038772,"Northwest 56th Street,",Seattle,WA,98107,47.67011138,-122.3938693,t
77,699460,"NW 60th St,",Seattle,WA,98107,47.6716905,-122.3852391,t
78,4085439,"Northwest 59th Street,",Seattle,WA,98107,47.67083618,-122.3925371,t
79,8053990,"Northwest 56th Street,",Seattle,WA,98107,47.67088677,-122.3930293,t
80,7011773,"Northwest 56th Street,",Seattle,WA,98107,47.67011497,-122.3929944,t
81,2467550,"Northwest 61st Street,",Seattle,WA,98107,47.67430793,-122.3767423,t
82,2686374,"Northwest 60th Street,",Seattle,WA,98107,47.67125039,-122.3826391,t
83,1956274,"Northwest 56th Street,",Seattle,WA,98107,47.66869206,-122.3960894,t
84,8537192,"Northwest 60th Street,",Seattle,WA,98107,47.67180552,-122.3880471,t
85,5919096,"Seattle, WA 98107, United States",Seattle,WA,98107,47.6714184,-122.3853854,t
86,6516529,"22nd Avenue Northwest,",Seattle,WA,98107,47.66874895,-122.38387,t
87,3294243,"24th Avenue Northwest,",Seattle,WA,98107,47.67268172,-122.3877307,t
88,10210971,"Northwest 58th Street,",Seattle,WA,98107,47.66968185,-122.3909885,f
89,3584790,"Northwest 65th Street, ",Seattle,WA,98117,47.67504404,-122.3827149,t
90,1266459,"Northwest 57th Street,",Seattle,WA,98107,47.66797917,-122.3821054,t
91,9098059,"Northwest 60th Street,",Seattle,WA,98107,47.67324985,-122.3873317,t
92,408526,"NW 63rd St,",Seattle,WA,98107,47.67553327,-122.376324,t
93,4118282,"24th Avenue Northwest, ",Seattle,WA,98117,47.67570811,-122.3875594,t
94,6813483,"Northwest 62nd Street,",Seattle,WA,98107,47.67477103,-122.3858305,t
95,6590264,"Northwest Market Street,",Seattle,WA,98107,47.66987432,-122.3877174,t
96,2650482,"Northwest 58th Street,",Seattle,WA,98107,47.67097576,-122.3878253,t
97,20927,"NW 60th St,",Seattle,WA,98107,47.67333939,-122.3951203,t
98,4395578,"20th Ave NW and NW 59th St,",Seattle,WA,98107,47.67100489,-122.3813814,f
99,4995903,"Northwest 61st Street,",Seattle,WA,98107,47.67170353,-122.3763381,t
100,5549211,"Northwest 61st Street,",Seattle,WA,98107,47.67175997,-122.3900201,t
101,8240758,"24th Avenue Northwest,",Seattle,WA,98107,47.67481867,-122.3875212,t
102,6856295,"Northwest 62nd Street,",Seattle,WA,98107,47.67300401,-122.3850048,t
103,6881188,"28th Avenue Northwest,",Seattle,WA,98107,47.67039453,-122.393897,t
104,1579615,"Northwest 64th Street,",Seattle,WA,98107,47.67582152,-122.3897101,t
105,3766866,"Northwest 58th Street,",Seattle,WA,98107,47.67228446,-122.3823135,t
106,2406966,"Northwest 60th Street,",Seattle,WA,98107,47.67227237,-122.3841322,t
107,4872699,"Northwest 63rd Street,",Seattle,WA,98107,47.67575024,-122.3765799,t
108,5470629,"Northwest 61st Street,",Seattle,WA,98107,47.67260212,-122.3884415,t
109,2950213,"20th Avenue Northwest,",Seattle,WA,98107,47.66676678,-122.3812427,t
110,9015088,"Northwest 65th Street,",Seattle,WA,98117,47.67550084,-122.3889063,t
111,3979496,"Northwest 64th Street,",Seattle,WA,98107,47.67575764,-122.3787983,t
112,7501919,"Northwest Market Street,",Seattle,WA,98107,47.66780059,-122.3883002,t
113,4732995,"Northwest 56th Street,",Seattle,WA,98107,47.66937129,-122.3762878,t
114,7134759,"Northwest 56th Street,",Seattle,WA,98107,47.66896088,-122.3938769,t
115,4532538,"Northwest 60th Street,",Seattle,WA,98107,47.67168771,-122.3925586,t
116,7534398,"20th Avenue Northwest,",Seattle,WA,98107,47.67180998,-122.3834372,t
117,9387189,"Ballard Avenue Northwest,",Seattle,WA,98107,47.66502233,-122.3827968,t
118,6337492,"NW 56th St,",Seattle,WA,98107,47.66898921,-122.3951453,f
119,10231701,"Northwest 57th Street,",Seattle,WA,98107,47.6693543,-122.3903476,t
120,1609922,"Northwest 58th Street,",Seattle,WA,98107,47.67166568,-122.3779123,t
121,4236723,"Northwest 60th Street,",Seattle,WA,98107,47.67058142,-122.3822112,t
122,7843837,"22nd Avenue Northwest,",Seattle,WA,98107,47.67210896,-122.3835885,t
123,3076065,"17th Avenue Northwest,",Seattle,WA,98107,47.67145807,-122.3791745,t
124,6423204,"Northwest 57th Street,",Seattle,WA,98107,47.67155977,-122.382704,t
125,8338849,",",Seattle,WA,98107,47.67283504,-122.3874716,t
126,6401209,"Northwest 61st Street,",Seattle,WA,98107,47.67397129,-122.3893805,t
127,20928,"Nw 60th St,",Seattle,WA,98107,47.6736071,-122.3938029,t
128,3344977,"Northwest 57th Street,",Seattle,WA,98107,47.66939869,-122.389254,t
129,7604621,"Northwest Brygger Place,",Seattle,WA,98107,47.6721767,-122.3903617,t
130,3303978,"Northwest 60th Street,",Seattle,WA,98107,47.67349962,-122.3869636,f
131,7067082,"Ballard Ave NW,",Seattle,WA,98107,47.66934443,-122.3865391,f
132,3121829,"Northwest 58th Street,",Seattle,WA,98107,47.6719218,-122.3806568,t
133,2539881,"Northwest Market Street,",Seattle,WA,98107,47.66934544,-122.3969735,t
134,3678718,"Northwest Market Street,",Seattle,WA,98107,47.66746398,-122.3782553,t
135,4694479,"Northwest 58th Street,",Seattle,WA,98107,47.67181197,-122.3889813,t
136,6646843,"Northwest 57th Street,",Seattle,WA,98107,47.67082046,-122.3705111,t
137,1364440,"3rd Avenue Northwest,",Seattle,WA,98107,47.6637344,-122.3620801,t
138,1781873,"Northwest 47th Street,",Seattle,WA,98107,47.6675968,-122.3647017,t
139,4138423,"8th Avenue Northwest,",Seattle,WA,98107,47.67053238,-122.3653185,t
140,5562674,"Northwest 56th Street,",Seattle,WA,98107,47.66676677,-122.3688235,t
141,1789341,"Northwest 59th Street,",Seattle,WA,98107,47.67235398,-122.3661749,t
142,4672934,"Northwest 51st Street,",Seattle,WA,98107,47.66583687,-122.3701323,t
143,4550099,"Northwest 62nd Street,",Seattle,WA,98107,47.67433308,-122.375678,t
144,1198799,"Northwest 60th Street,",Seattle,WA,98107,47.67269174,-122.3735586,t
145,5308429,"Northwest 65th Street, ",Seattle,WA,98117,47.67529056,-122.3704741,t
146,2769088,"6th Avenue Northwest,",Seattle,WA,98107,47.66899339,-122.3628603,t
147,7603135,"Northwest 56th Street,",Seattle,WA,98107,47.66879475,-122.3616125,t
148,9374365,"14th Avenue Northwest,",Seattle,WA,98107,47.67388232,-122.3746263,t
149,6106498,"Northwest 52nd Street,",Seattle,WA,98107,47.66578734,-122.3619923,t
150,9331449,"14th Avenue Northwest,",Seattle,WA,98107,47.67228263,-122.3731616,t
151,8799162,"3rd Avenue Northwest,",Seattle,WA,98107,47.66835401,-122.3611388,t
152,4317390,"8th Avenue Northwest,",Seattle,WA,98107,47.66880846,-122.3662618,t
153,3884851,"Northwest 56th Street,",Seattle,WA,98107,47.66832396,-122.3718212,t
154,3155785,"5th Avenue Northwest,",Seattle,WA,98107,47.6723724,-122.3628417,t
155,9368517,"Northwest 47th Street,",Seattle,WA,98107,47.66388206,-122.3621749,t
156,5643240,"Northwest 57th Street,",Seattle,WA,98107,47.67092865,-122.3667818,t
157,5042014,"Northwest 60th Street,",Seattle,WA,98107,47.67261671,-122.3743927,t
158,7724630,"5th Avenue Northwest,",Seattle,WA,98107,47.67271728,-122.3614171,t
159,9449437,"14th Avenue Northwest,",Seattle,WA,98107,47.67274336,-122.3731945,t
160,3053237,"Northwest 50th Street,",Seattle,WA,98107,47.66454921,-122.3682089,t
161,8132347,"Northwest 51st Street,",Seattle,WA,98107,47.66658567,-122.3656518,t
162,63733,"Nw 60th St,",Seattle,WA,98107,47.67171434,-122.3658876,t
163,2039149,"Seattle, WA, United States",Seattle,WA,,47.66686785,-122.3640313,t
164,227636,"NW 50th St,",Seattle,WA,98107,47.66807053,-122.3620862,t
165,3689119,"6th Avenue Northwest,",Seattle,WA,98107,47.67212369,-122.3650094,t
166,1179538,"14th Avenue Northwest,",Seattle,WA,98107,47.67358404,-122.3738143,t
167,6823781,"Northwest 49th Street,",Seattle,WA,98107,47.66337838,-122.3646915,t
168,2284536,"8th Avenue Northwest,",Seattle,WA,98107,47.66934139,-122.3662641,t
169,5143441,"NW 50th St,",Seattle,WA,98107,47.66493716,-122.3616797,f
170,5749958,"Northwest 56th Street,",Seattle,WA,98107,47.66884467,-122.3683793,t
171,9116815,"Northwest 48th Street,",Seattle,WA,98107,47.6650167,-122.3647071,f
172,7731836,"Northwest 54th Street,",Seattle,WA,98107,47.66893752,-122.3733392,t
173,10262971,"Northwest 51st Street,",Seattle,WA,98107,47.66597002,-122.3686393,t
174,1407502,"Northwest 62nd Street,",Seattle,WA,98107,47.67431327,-122.3679688,t
175,8817038,"Northwest 51st Street,",Seattle,WA,98107,47.66520903,-122.3624565,f
176,4449303,"Northwest 51st Street,",Seattle,WA,98107,47.66444545,-122.370171,t
177,8255615,"Northwest 53rd Street,",Seattle,WA,98107,47.66682168,-122.3629367,t
178,4053092,"7th Avenue Northwest,",Seattle,WA,98107,47.67122243,-122.3636869,t
179,6886633,"Northwest 48th Street,",Seattle,WA,98107,47.66365549,-122.3669411,t
180,8820414,"Northwest 64th Street,",Seattle,WA,98107,47.67548903,-122.3675145,t
181,3052151,"6th Avenue Northwest,",Seattle,WA,98107,47.66688717,-122.3646641,t
182,2339333,"7th Ave NW,",Seattle,WA,98107,47.67357118,-122.3642743,f
183,1618842,"Northwest 52nd Street,",Seattle,WA,98107,47.66524464,-122.3704095,t
184,888967,"Northwest 60th Street,",Seattle,WA,98107,47.67167956,-122.3653898,t
185,380950,"NW 50th St,",Seattle,WA,98107,47.66624017,-122.3609177,t
186,8097708,"7th Avenue Northwest,",Seattle,WA,98107,47.67091242,-122.3655995,t
187,5671843,"Northwest 60th Street,",Seattle,WA,98107,47.67098702,-122.3751406,t
188,904057,"Northwest 64th Street,",Seattle,WA,98107,47.66539135,-122.3660988,t
189,7161725,"Northwest 64th Street,",Seattle,WA,98107,47.67342403,-122.3742328,t
190,9587410,"Northwest 59th Street,",Seattle,WA,98107,47.67155243,-122.3676333,t
191,9202380,"3rd Avenue Northwest,",Seattle,WA,98107,47.66338811,-122.3613784,t
192,2238105,"6th Avenue Northwest,",Seattle,WA,98107,47.66336498,-122.3624685,t
193,9545766,"Northwest 57th Street,",Seattle,WA,98107,47.67076135,-122.371095,t
194,2441908,"Northwest 63rd Street, Ballard,","Ballard, Seattle",WA,98107,47.67591574,-122.3704736,t
195,9367465,"Northwest 47th Street,",Seattle,WA,98107,47.66365131,-122.3620818,t
196,3031415,"6th Avenue Northwest,",Seattle,WA,98107,47.66525243,-122.3619207,t
197,843812,"Northwest 60th Street,",Seattle,WA,98107,47.67133442,-122.3657976,t
198,3835995,"6th Avenue Northwest,",Seattle,WA,98107,47.67307821,-122.3641401,t
199,9732638,"Northwest 52nd Street,",Seattle,WA,98107,47.66678535,-122.3667514,t
200,3768745,"Galer St, Seattle, ",Seattle,WA,98109,47.63184304,-122.3451235,f
201,3975434,"Aloha Street, Seattle, ",Seattle,WA,98109,47.62812031,-122.3487521,t
202,5620928,"Dexter Avenue North, Seattle, ",Seattle,WA,98109,47.64359973,-122.3446299,t
203,7381677,"Ward Street, Seattle, ",Seattle,WA,98109,47.62889479,-122.3475714,t
204,5487934,"Dexter Avenue North, Seattle, ",Seattle,WA,98109,47.63899882,-122.3435739,t
205,9028447,"8th Ave N, Seattle, ",Seattle,WA,98109,47.63950083,-122.3433039,f
206,757840,"Galer St., Seattle, ",Seattle,WA,98109,47.63152636,-122.3562828,t
207,8848403,"Aurora Avenue North, Seattle, ",Seattle,WA,98109,47.64017717,-122.3465226,t
208,7430926,"Aurora Avenue North, Seattle, ",Seattle,WA,98109,47.64290503,-122.346705,t
209,7021544,"Dexter Avenue North, Seattle, ",Seattle,WA,98109,47.64075557,-122.3428766,t
210,1323446,"Warren Avenue North, Seattle, ",Seattle,WA,98109,47.63544456,-122.3555166,t
211,3925573,"Dexter Avenue North, Seattle, ",Seattle,WA,98109,47.64269717,-122.3436911,t
212,8723086,"Dexter Ave N, Seattle, ",Seattle,WA,98109,47.63892301,-122.3428269,f
213,781474,"Westlake Ave N, Seattle, ",Seattle,WA,98109,47.64291211,-122.3446833,t
214,9812439,"Dexter Avenue North, Seattle, ",Seattle,WA,98109,47.63934586,-122.3431324,t
215,3401644,"2nd Avenue North, Seattle, ",Seattle,WA,98109,47.63507293,-122.3545941,t
216,10036903,"Queen Anne Avenue North, Seattle, ",Seattle,WA,98109,47.62857355,-122.3559092,t
217,5310193,"4th Avenue North, Seattle, ",Seattle,WA,98109,47.63793826,-122.3507256,t
218,5308875,"6th Ave N, Seattle, ",Seattle,WA,98109,47.62930931,-122.3441362,f
219,5052459,"6th Avenue North, Seattle, ",Seattle,WA,98109,47.6305064,-122.3450221,t
220,7228499,"Highland Drive, Seattle, ",Seattle,WA,98109,47.630214,-122.3476151,t
221,7651653,"Highland Drive, Seattle, ",Seattle,WA,98109,47.62954816,-122.3465966,t
222,1494986,"Taylor Avenue North, Seattle, ",Seattle,WA,98109,47.6337667,-122.3446154,t
223,1783382,"Taylor Avenue N, Seattle, ",Seattle,WA,98109,47.63444164,-122.3437841,t
224,7513198,"Taylor Avenue North, Seattle, ",Seattle,WA,98109,47.63211913,-122.3468193,t
225,8308316,", Seattle, ",Seattle,WA,98109,47.63043465,-122.3501712,t
226,9694921,"Dexter Avenue North, Seattle, ",Seattle,WA,98109,47.63840684,-122.344077,t
227,2472850,"Prospect Street, Seattle, ",Seattle,WA,98109,47.62900387,-122.3438233,t
228,5487522,"Dexter Avenue North, Seattle, ",Seattle,WA,98109,47.63935867,-122.3440287,t
229,4016650,"Birch Avenue North, Seattle, ",Seattle,WA,98109,47.64011972,-122.3445298,t
230,10229434,"6th Avenue North, Seattle, ",Seattle,WA,98109,47.63815778,-122.3441574,f
231,3479241,"8th Avenue North, Seattle, ",Seattle,WA,98109,47.63987162,-122.3418345,t
232,5848400,"4th Avenue N and Garfield St, Seattle, ",Seattle,WA,98109,47.63214523,-122.3506487,f
233,6077760,"Dexter Avenue North, Seattle, ",Seattle,WA,98109,47.63453262,-122.3437901,t
234,4642956,"Highland Drive, Seattle, ",Seattle,WA,98109,47.62994743,-122.351388,t
235,1167507,"Bigelow Avenue North, Seattle, ",Seattle,WA,98109,47.63192143,-122.3485203,t
236,6044106,"Aurora Avenue North, Seattle, ",Seattle,WA,98109,47.64154276,-122.3446612,t
237,1799255,"3rd Avenue North, Seattle, ",Seattle,WA,98109,47.63812903,-122.352374,t
238,8941768,"Taylor Avenue North, Seattle, ",Seattle,WA,98109,47.63279988,-122.3465579,t
239,6569950,"Queen Anne Avenue North, Seattle, ",Seattle,WA,98109,47.63082669,-122.3562298,t
240,7733192,"Taylor Avenue North, Seattle, ",Seattle,WA,98109,47.6327564,-122.3469865,t
241,9215782,"Prospect Street, Seattle, ",Seattle,WA,98109,47.62846484,-122.3465481,t
242,5175631,"6th Avenue North, Seattle, ",Seattle,WA,98109,47.64236917,-122.3440864,t
243,6315614,"Taylor Avenue North, Seattle, ",Seattle,WA,98109,47.6293877,-122.3459247,t
244,9134193,"West Crockett Street,",Seattle,WA,98119,47.63685503,-122.3568735,t
245,2481189,"Dexter Avenue North, Seattle, ",Seattle,WA,98109,47.63630285,-122.3478271,t
246,8535897,"1st Avenue North, Seattle, ",Seattle,WA,98109,47.63321404,-122.3549398,t
247,9476826,"Prospect Street, Seattle, ",Seattle,WA,98109,47.6294311,-122.3452937,t
248,3144311,"Crockett Street, Seattle, ",Seattle,WA,98109,47.63770585,-122.3439878,t
249,9370007,"5th Avenue North, Seattle, ",Seattle,WA,98109,47.62917175,-122.3474787,t
250,6781308,"Aurora Avenue North, Seattle, ",Seattle,WA,98109,47.64219186,-122.3464303,t
251,160222,"8th Ave N, Seattle, ",Seattle,WA,98109,47.64034606,-122.3420882,t
252,4250367,"Nob Hill Avenue North, Seattle, ",Seattle,WA,98109,47.62905147,-122.3509893,t
253,8755479,"Taylor Avenue North, Seattle, ",Seattle,WA,98109,47.62983437,-122.3468722,t
254,8829156,"Aurora Avenue North, Seattle, ",Seattle,WA,98109,47.64051553,-122.344504,t
255,5126077,"Taylor Avenue North, Seattle, ",Seattle,WA,98109,47.63000397,-122.3451203,t
256,6108796,"Aurora Avenue North, Seattle, ",Seattle,WA,98109,47.64103958,-122.3444038,t
257,2692126,"6th Avenue N, Seattle, ",Seattle,WA,98109,47.63111242,-122.3439642,t
258,6882211,"Smith Street, Seattle, ",Seattle,WA,98109,47.64046804,-122.3557637,t
259,9573675,"Aurora Avenue North, Seattle, ",Seattle,WA,98109,47.63953892,-122.3448475,t
260,3544953,"Waverly Place North, Seattle, ",Seattle,WA,98109,47.64071111,-122.3463179,t
261,2020505,"Nob Hill Ave N, Seattle, ",Seattle,WA,98109,47.64145197,-122.3528848,t
262,5580457,"Birch Avenue North, Seattle, ",Seattle,WA,98109,47.64387483,-122.3461443,t
263,1495271,"1st Avenue North, Seattle, ",Seattle,WA,98109,47.63911468,-122.3542986,t
264,8455865,"Wheeler Street, Seattle, ",Seattle,WA,98109,47.64032332,-122.3493863,t
265,9679300,"Queen Anne Avenue North, Seattle, ",Seattle,WA,98109,47.62963743,-122.3561691,f
266,6065566,"Crockett Street, Seattle, ",Seattle,WA,98109,47.63703759,-122.353111,t
267,4645208,"Nob Hill Avenue North, Seattle, ",Seattle,WA,98109,47.63394912,-122.3496911,t
268,6115807,"Warren Ave N, Seattle, ",Seattle,WA,98109,47.63786752,-122.3530645,f
269,7091397,"3rd Avenue North, Seattle, ",Seattle,WA,98109,47.63736553,-122.352344,t
270,6134153,"Boston Street, Seattle, ",Seattle,WA,98109,47.63784754,-122.3535869,t
271,7763878,"W Republican St,",Seattle,WA,98119,47.63180066,-122.3559977,f
272,8088447,"Crockett Street, Seattle, ",Seattle,WA,98109,47.63831372,-122.3429312,t
273,3418349,"5th Avenue North, Seattle, ",Seattle,WA,98109,47.62833641,-122.3463335,t
274,9199982,"Aurora Avenue North, Seattle, ",Seattle,WA,98109,47.64007889,-122.3452415,f
275,6400000,"Boston Street, Seattle, ",Seattle,WA,98109,47.63892542,-122.3562882,t
276,6776229,"Aurora Avenue North, Seattle, ",Seattle,WA,98109,47.64001746,-122.3451296,t
277,7627794,"Westlake Avenue North, Seattle, ",Seattle,WA,98109,47.63879043,-122.341579,t
278,8374102,"5th Avenue North, Seattle, ",Seattle,WA,98109,47.62919531,-122.3480345,t
279,6316934,"Dexter Avenue North, Seattle, ",Seattle,WA,98109,47.6393371,-122.3442914,t
280,1820794,"Highland Drive, Seattle, ",Seattle,WA,98109,47.63033292,-122.3476269,t
281,314180,"Woodlawn Ave N, ",Seattle,WA,98103,47.65386101,-122.3384965,t
282,8670079,"Northeast 53rd Street,",Seattle,WA,98105,47.66772999,-122.3268727,t
283,4868135,"Woodland Park Avenue North, ",Seattle,WA,98103,47.66144065,-122.343953,f
284,5336585,"Meridian Avenue North, ",Seattle,WA,98103,47.66166903,-122.3337431,t
285,1427103,"North 40th Street, ",Seattle,WA,98103,47.65317216,-122.3372994,t
286,3518808,"North 51st Street, ",Seattle,WA,98103,47.66458664,-122.3330577,t
287,8995844,"North 48th Street, ",Seattle,WA,98103,47.66407098,-122.3353794,t
288,356566,"Woodlawn Ave N, ",Seattle,WA,98103,47.65389856,-122.3380692,t
289,6466388,"Latona Ave NE,",Seattle,WA,98105,47.67094939,-122.3247405,f
290,4531944,"N 53rd St, ",Seattle,WA,98103,47.66618274,-122.3346106,f
291,6686072,"Northeast 57th Street,",Seattle,WA,98105,47.67150263,-122.3278906,t
292,4384343,"Latona Avenue Northeast,",Seattle,WA,98105,47.66546743,-122.3235737,t
293,7900056,"Woodlawn Avenue North, ",Seattle,WA,98103,47.6669849,-122.3394022,t
294,6378563,"N 38th St, ",Seattle,WA,98103,47.65373805,-122.3389802,f
295,5630783,"Ashworth Avenue North, ",Seattle,WA,98103,47.66895679,-122.3377825,t
296,340706,"Meridian Ave N, ",Seattle,WA,98103,47.65588494,-122.332136,t
297,6202214,"Woodlawn Avenue North, ",Seattle,WA,98103,47.65163619,-122.3386218,t
298,1030411,"North 49th Street, ",Seattle,WA,98103,47.66540203,-122.3393869,t
299,7922373,"Meridian Ave N, ",Seattle,WA,98103,47.65361625,-122.3325597,f
300,6156470,"N 50th St, ",Seattle,WA,98103,47.66474422,-122.3381738,f
301,2994309,"5th Avenue Northeast,",Seattle,WA,98105,47.66585564,-122.3226907,t
302,1594328,"North 40th Street, ",Seattle,WA,98103,47.65635515,-122.3381037,t
303,8072920,"North 43rd Street, ",Seattle,WA,98103,47.66014668,-122.3415303,t
304,6915487,"Woodlawn Avenue North, ",Seattle,WA,98103,47.66692015,-122.3387942,t
305,6202603,"Interlake Avenue North, ",Seattle,WA,98103,47.65158618,-122.3399027,t
306,5286781,"N 40th St, ",Seattle,WA,98103,47.65595529,-122.3321554,t
307,2818420,"N 44th Street, ",Seattle,WA,98103,47.65991178,-122.3376861,t
308,3739681,"North 44th Street, ",Seattle,WA,98103,47.66103159,-122.3351641,t
309,7922063,"East Green Lake Way N, ",Seattle,WA,98103,47.66836312,-122.3388869,f
310,611509,"N 50th St, ",Seattle,WA,98103,47.66369539,-122.3362252,t
311,1802663,"Woodlawn Avenue North, ",Seattle,WA,98103,47.65611906,-122.3390315,t
312,9797545,"Thackeray Place Northeast,",Seattle,WA,98105,47.66128295,-122.326836,t
313,9241055,"North 45th Street, ",Seattle,WA,98103,47.66107313,-122.3334981,t
314,9294832,"East Green Lake Way North, ",Seattle,WA,98103,47.66980224,-122.3385395,t
315,8643209,"2nd Avenue Northeast,",Seattle,WA,98105,47.65589665,-122.3265346,t
316,7258811,"Corliss Avenue North, ",Seattle,WA,98103,47.65085838,-122.3313378,t
317,10265391,"Burke Avenue North, ",Seattle,WA,98103,47.66150339,-122.334257,f
318,132120,"Kenwood Pl N, ",Seattle,WA,98103,47.66922781,-122.3351737,t
319,6343866,"North 48th Street, ",Seattle,WA,98103,47.66414745,-122.3342495,t
320,3066740,"N Northlake Way, ",Seattle,WA,98103,47.64857217,-122.3407591,f
321,4130112,"4th Avenue Northeast,",Seattle,WA,98105,47.65707098,-122.3238801,t
322,4026757,"North 52nd Street, ",Seattle,WA,98103,47.66735094,-122.3399228,t
323,9545281,"Whitman Avenue North, ",Seattle,WA,98103,47.66243176,-122.3467924,t
324,3294804,"Bagley Avenue North, ",Seattle,WA,98103,47.65089092,-122.3335344,t
325,4122325,"5th Avenue Northeast, ",Seattle,WA,98115,47.67206215,-122.3249283,t
326,8308353,"Ashworth Avenue North, ",Seattle,WA,98103,47.65215976,-122.3394301,t
327,7226013,"Woodland Park Avenue North, ",Seattle,WA,98103,47.6622894,-122.3460901,t
328,5761290,"Woodlawn Avenue North, ",Seattle,WA,98103,47.66668939,-122.3392712,t
329,182716,"N 51st St, ",Seattle,WA,98103,47.6666711,-122.3326017,t
330,3050140,"North 53rd Street, ",Seattle,WA,98103,47.67065922,-122.3359619,t
331,3254956,"Eastern Avenue North, ",Seattle,WA,98103,47.6543064,-122.3302262,t
332,1264287,"4th Avenue Northeast,",Seattle,WA,98105,47.65940041,-122.3245071,t
333,3404557,"Corliss Avenue North, ",Seattle,WA,98103,47.6497082,-122.3310153,t
334,3939683,"Corliss Avenue North, ",Seattle,WA,98103,47.65093383,-122.3313258,t
335,3424242,"Corliss Avenue North, ",Seattle,WA,98103,47.65097251,-122.3308842,t
336,7985714,"Corliss Avenue North, ",Seattle,WA,98103,47.65002387,-122.3328031,t
337,4279876,"Sunnyside Avenue North, ",Seattle,WA,98103,47.6618228,-122.3293007,t
338,3870253,"Whitman Avenue North, ",Seattle,WA,98103,47.66140494,-122.3454722,t
339,2187563,"1st Avenue Northeast,",Seattle,WA,98105,47.65736192,-122.3276249,t
340,3889299,"Corliss Avenue North, ",Seattle,WA,98103,47.64985412,-122.3306848,t
341,3889330,"Corliss Avenue North, ",Seattle,WA,98103,47.65129392,-122.3310318,t
342,1184846,"Meridian Avenue North, ",Seattle,WA,98103,47.64983061,-122.3343314,t
343,3626162,"Sunnyside Avenue North, ",Seattle,WA,98103,47.65945121,-122.3291367,t
344,456040,"N 55th St, ",Seattle,WA,98103,47.66947906,-122.3294415,t
345,9033154,"Bagley Avenue North, ",Seattle,WA,98103,47.66097944,-122.333483,t
346,4340838,"Northeast 55th Street,",Seattle,WA,98105,47.66846777,-122.3266958,t
347,808811,"Green Lake Way N, ",Seattle,WA,98103,47.66521357,-122.336753,t
348,7368030,"North 45th Street, ",Seattle,WA,98103,47.66116478,-122.3368463,t
349,522287,"Woodland Park Ave N, ",Seattle,WA,98103,47.65098656,-122.3417048,t
350,1940787,"North 40th Street, ",Seattle,WA,98103,47.65512858,-122.3352882,t
351,3732103,"Corliss Avenue North, ",Seattle,WA,98103,47.65021119,-122.3320348,t
352,43373,"Corliss Ave N, ",Seattle,WA,98103,47.65055156,-122.3305887,t
353,5126365,"Latona Avenue Northeast,",Seattle,WA,98105,47.66286984,-122.3248901,t
354,7182584,"North 51st Street, ",Seattle,WA,98103,47.66659624,-122.3379123,t
355,5325214,"Green Lake Way North, ",Seattle,WA,98103,47.66330129,-122.3434587,t
356,2710274,"Bagley Avenue North, ",Seattle,WA,98103,47.65809327,-122.3317165,t
357,5128160,"2nd Avenue Northeast,",Seattle,WA,98105,47.65767236,-122.3258483,t
358,3424114,"Corliss Avenue North, ",Seattle,WA,98103,47.65020661,-122.3311043,t
359,2776890,"Bagley Avenue North, ",Seattle,WA,98103,47.64952916,-122.3321774,t
360,4521755,"North 38th Street, ",Seattle,WA,98103,47.65372,-122.3383883,t
361,3456599,"Bagley Avenue North, ",Seattle,WA,98103,47.65059636,-122.3340379,t
362,8207848,"Stone Way North, ",Seattle,WA,98103,47.65787896,-122.3417997,t
363,10249527,"Northeast 45th Street,",Seattle,WA,98105,47.66189383,-122.3237494,t
364,1252740,"North 45th Street, ",Seattle,WA,98103,47.66266784,-122.3450441,t
365,4250938,"NE 55th Street and 5th Ave NE,",Seattle,WA,98105,47.66990224,-122.3240487,f
366,3791920,"North 50th Street, ",Seattle,WA,98103,47.66400538,-122.3283366,t
367,4258762,"Corliss Avenue North, ",Seattle,WA,98103,47.6593428,-122.3319395,t
368,7364146,"Aurora Avenue North, ",Seattle,WA,98103,47.66263063,-122.3461182,t
369,6765045,"Wallingford Avenue North, ",Seattle,WA,98103,47.65510297,-122.3360436,t
370,3193738,"North Northlake Way, ",Seattle,WA,98103,47.6473451,-122.3334862,t
371,8765219,"Thackeray Place Northeast,",Seattle,WA,98105,47.66214454,-122.3240169,t
372,8174285,,Seattle,WA,98103,47.65321009,-122.3399708,f
373,3403638,"Corliss Avenue North, ",Seattle,WA,98103,47.65094245,-122.3325889,t
374,7601333,"Sunnyside Avenue North, ",Seattle,WA,98103,47.65355382,-122.3289685,t
375,6707735,"North 46th Street, ",Seattle,WA,98103,47.66436893,-122.3306356,t
376,7322718,"Northeast 58th Street,",Seattle,WA,98105,47.67025275,-122.3288856,t
377,3783162,"North 42nd Street, ",Seattle,WA,98103,47.66031845,-122.3319052,t
378,6606,"Densmore Ave N, ",Seattle,WA,98103,47.65410861,-122.3376053,t
379,3889280,"Corliss Avenue North, ",Seattle,WA,98103,47.6499608,-122.3327015,t
380,3971137,"Burke Avenue North, ",Seattle,WA,98103,47.65769988,-122.3341513,t
381,3889050,"Corliss Avenue North, ",Seattle,WA,98103,47.65158166,-122.3307967,t
382,799882,"N 57th St, ",Seattle,WA,98103,47.6708457,-122.3374666,t
383,9508386,"North 55th Street, ",Seattle,WA,98103,47.66809219,-122.3367733,t
384,6714817,"North 50th Street, ",Seattle,WA,98103,47.66432019,-122.3291753,t
385,3773700,"2nd Avenue Northeast,",Seattle,WA,98105,47.66291652,-122.3267233,t
386,3773568,"1st Avenue Northeast,",Seattle,WA,98105,47.67081358,-122.3274855,t
387,9313974,"North 40th Street, ",Seattle,WA,98103,47.65491445,-122.3380752,t
388,6492880,"Northeast 59th Street,",Seattle,WA,98105,47.6716421,-122.3252768,t
389,4879013,"Northeast 56th Street,",Seattle,WA,98105,47.66982241,-122.3269604,t
390,3732094,"Corliss Avenue North, ",Seattle,WA,98103,47.65084966,-122.3329107,t
391,873073,"Bagley Avenue North, ",Seattle,WA,98103,47.65543135,-122.3334223,t
392,234898,"1st Ave NE,",Seattle,WA,98105,47.66230982,-122.3268488,t
393,8533375,"Thackeray Place Northeast,",Seattle,WA,98105,47.66332376,-122.3257564,t
394,6854019,"Green Lake Way North, ",Seattle,WA,98103,47.6658025,-122.3387674,t
395,8418650,", ",Seattle,WA,98103,47.65254159,-122.3387686,t
396,3732076,"Corliss Avenue North, ",Seattle,WA,98103,47.64989806,-122.3312562,t
397,4608592,"4th Avenue NE,",Seattle,WA,98105,47.65899259,-122.3246634,t
398,4862719,"North 55th Street, ",Seattle,WA,98103,47.66800609,-122.329389,t
399,668169,"Wallingford Ave N, ",Seattle,WA,98103,47.66642488,-122.3349052,t
400,429453,"Woodlawn Ave N, ",Seattle,WA,98103,47.6516632,-122.339685,t
401,10124808,"North 38th Street, ",Seattle,WA,98103,47.65349108,-122.3409534,t
402,7459684,"2nd Avenue Northeast,",Seattle,WA,98105,47.65708273,-122.3265511,t
403,5992645,"North 57th Street, ",Seattle,WA,98103,47.67096385,-122.3288633,t
404,7917718,"Latona Avenue Northeast,",Seattle,WA,98105,47.66191806,-122.3249912,t
405,2986056,"Corliss Avenue North, ",Seattle,WA,98103,47.65099402,-122.332345,t
406,2011193,"North 40th Street, ",Seattle,WA,98103,47.65612702,-122.3353029,t
407,3768626,"Kensington Place North, ",Seattle,WA,98103,47.66752608,-122.3289111,t
408,2026794,"Bagley Avenue North, ",Seattle,WA,98103,47.65929724,-122.333096,t
409,9154294,"Eastern Avenue North, ",Seattle,WA,98103,47.65257626,-122.328736,t
410,430610,"Carr Pl N, ",Seattle,WA,98103,47.65410157,-122.3385109,t
411,3231850,"Northeast 60th Street, ",Seattle,WA,98115,47.67048822,-122.3226001,t
412,2976798,"Latona Ave. N.E.,",Seattle,WA,98105,47.65668734,-122.3265699,t
413,703058,"North 37th Street, ",Seattle,WA,98103,47.65243416,-122.3378533,t
414,7826541,"Wallingford Avenue North, ",Seattle,WA,98103,47.64826946,-122.3370324,t
415,240920,"Wallingford Ave N, ",Seattle,WA,98103,47.668176,-122.3373708,t
416,6655233,"Latona Ave NE,",Seattle,WA,98105,47.6702672,-122.3253725,f
417,9866461,"Northeast 45th Street,",Seattle,WA,98105,47.66190551,-122.3239717,t
418,7957729,"4th Avenue Northeast,",Seattle,WA,98105,47.66222166,-122.3235871,t
419,1428687,"Canfield Place North, ",Seattle,WA,98103,47.66632647,-122.3337413,t
420,4803403,"Whitman Avenue North, ",Seattle,WA,98103,47.66198074,-122.3460958,t
421,11012,"Densmore Ave N, ",Seattle,WA,98103,47.65447679,-122.3364643,t
422,3888924,"Corliss Avenue North, ",Seattle,WA,98103,47.65127573,-122.3327965,t
423,8842808,"North 49th Street, ",Seattle,WA,98103,47.66422711,-122.3390493,t
424,1114695,"North 46th Street, ",Seattle,WA,98103,47.66121706,-122.3394242,t
425,1715582,"North 43rd Street, ",Seattle,WA,98103,47.6624767,-122.3326592,t
426,6704734,"1st Avenue Northeast,",Seattle,WA,98105,47.66369278,-122.3283657,t
427,8555098,"Northeast 53rd Street,",Seattle,WA,98105,47.66767781,-122.3284138,t
428,1214316,"Woodland Park Avenue North, ",Seattle,WA,98103,47.66358479,-122.340728,t
429,7325455,"Thackeray Place Northeast,",Seattle,WA,98105,47.65736664,-122.326742,f
430,6325685,"North 50th Street, ",Seattle,WA,98103,47.66440368,-122.3381274,t
431,9596,"Densmore Ave N, ",Seattle,WA,98103,47.65478743,-122.3365199,t
432,9568491,"Stone Way North, ",Seattle,WA,98103,47.65014725,-122.3417705,f
433,1747184,"Sunnyside Avenue North, ",Seattle,WA,98103,47.64923604,-122.3321802,t
434,8653843,"Northeast 60th Street,",Seattle,WA,98115,47.67169513,-122.3248793,f
435,6727729,"North 35th Street, ",Seattle,WA,98103,47.64784967,-122.3360788,t
436,3888986,"Corliss Avenue North, ",Seattle,WA,98103,47.65105573,-122.3309857,t
437,4135710,"North Northlake Way, ",Seattle,WA,98103,47.64811529,-122.3316654,t
438,3652434,"N 39th street & Eastern street, ",Seattle,WA,98103,47.65437002,-122.3278962,f
439,7667990,"Stone Way North, ",Seattle,WA,98103,47.65754176,-122.3415325,t
440,4047058,"North 52nd Street, ",Seattle,WA,98103,47.66858111,-122.3368802,t
441,7163934,"North Allen Place, ",Seattle,WA,98103,47.66029589,-122.3402608,t
442,7717478,"Latona Avenue Northeast,",Seattle,WA,98105,47.66993429,-122.3266899,t
443,4653552,"Woodlawn Avenue North, ",Seattle,WA,98103,47.67146344,-122.3341332,t
444,6915439,"Latona Avenue Northeast,",Seattle,WA,98105,47.65837647,-122.3267655,t
445,506542,"4th Ave NE,",Seattle,WA,98105,47.6585389,-122.325818,t
446,4046863,"North 52nd Street, ",Seattle,WA,98103,47.66536801,-122.3399943,t
447,3915826,"Stone Way North, ",Seattle,WA,98103,47.65938706,-122.3418815,t
448,4787415,"13th Avenue West,",Seattle,WA,98119,47.64181148,-122.3740712,t
449,1602488,"2nd Avenue North, Seattle, ",Seattle,WA,98109,47.64675745,-122.3527991,t
450,8459215,"1st Avenue West,",Seattle,WA,98119,47.64169151,-122.359255,t
451,10274175,"Dravus St, Seattle, ",Seattle,WA,98109,47.64977536,-122.3579828,f
452,9167786,"Gilman Drive West,",Seattle,WA,98119,47.64235821,-122.3740468,t
453,5686435,"5th Avenue West,",Seattle,WA,98119,47.64262214,-122.3643547,t
454,7939058,"4th Avenue West,",Seattle,WA,98119,47.64689454,-122.3614399,t
455,8392801,"West Nickerson Street,",Seattle,WA,98119,47.65186066,-122.3649937,f
456,7404370,"Warren Avenue North, Seattle, ",Seattle,WA,98109,47.64763894,-122.3552943,t
457,3720511,"West Etruria Street, Seattle, ",Seattle,WA,98109,47.64758832,-122.3588954,t
458,8193332,"Etruria St, Seattle, ",Seattle,WA,98109,47.64665844,-122.3568149,f
459,7957904,"West Nickerson Street,",Seattle,WA,98119,47.65247214,-122.3690778,t
460,4555997,"11th Avenue West,",Seattle,WA,98119,47.65349156,-122.3697413,t
461,2267088,"4th Avenue West,",Seattle,WA,98119,47.64530245,-122.3609061,t
462,108468,"11th Ave W,",Seattle,WA,98119,47.64528801,-122.3726424,t
463,6400379,"4th Avenue West,",Seattle,WA,98119,47.64353088,-122.3608339,t
464,5948003,"Gilman Drive West,",Seattle,WA,98119,47.64145151,-122.3741879,t
465,5058086,"13th Avenue West,",Seattle,WA,98119,47.64491325,-122.3734628,t
466,1209255,"2nd Avenue West,",Seattle,WA,98119,47.6409471,-122.3573748,t
467,1914051,"7th Avenue West,",Seattle,WA,98119,47.64141466,-122.365496,t
468,2923529,"Florentia Street, Seattle, ",Seattle,WA,98109,47.64652744,-122.3543343,t
469,1027860,"11th Avenue West,",Seattle,WA,98119,47.65079525,-122.3723846,t
470,2373176,"7th Avenue West,",Seattle,WA,98119,47.6399253,-122.3674313,t
471,6404427,"12th Avenue West,",Seattle,WA,98119,47.64238208,-122.3720728,t
472,8517602,"Queen Anne Avenue North, Seattle, ",Seattle,WA,98109,47.64265654,-122.3581082,t
473,7035240,"8th Avenue West,",Seattle,WA,98119,47.64096458,-122.3682862,t
474,4583161,"14th Avenue West,",Seattle,WA,98119,47.64519299,-122.3758195,t
475,7967844,"West Armour Street,",Seattle,WA,98119,47.64410466,-122.3706796,t
476,6562393,"West Armour Street,",Seattle,WA,98119,47.64362433,-122.3674237,t
477,7807087,"W Emerson St,",Seattle,WA,98119,47.65433968,-122.3708774,f
478,5405643,"9th Avenue West,",Seattle,WA,98119,47.65017304,-122.3676004,t
479,7011200,"14th Ave W,",Seattle,WA,98119,47.65058977,-122.3712286,f
480,610989,"14th Avenue West, Seattle, WA, United States",Seattle,WA,,47.64939343,-122.3755835,t
481,7839535,"4th Avenue West,",Seattle,WA,98119,47.64341119,-122.3627156,t
482,4814894,"13th Avenue West,",Seattle,WA,98119,47.643435,-122.3730079,t
483,186328,"Warren Avenue North, Seattle, ",Seattle,WA,98109,47.64413086,-122.3562992,t
484,7492877,"3rd Avenue North, Seattle, ",Seattle,WA,98109,47.64598072,-122.3512444,t
485,6576228,"9th Avenue West,",Seattle,WA,98119,47.6527602,-122.3687842,t
486,241016,"Gilman Dr W,",Seattle,WA,98119,47.64328624,-122.3758186,t
487,6968101,"Queen Anne Avenue North, Seattle, ",Seattle,WA,98109,47.64152919,-122.3567093,t
488,5648564,"West Etruria Street,",Seattle,WA,98119,47.6472569,-122.3593189,t
489,4116645,"Dravus Street, Seattle, ",Seattle,WA,98109,47.64721551,-122.3566966,t
490,2419879,"2nd Avenue North, Seattle, ",Seattle,WA,98109,47.646883,-122.354231,t
491,6425735,"West Etruria Street,",Seattle,WA,98119,47.64719277,-122.3589062,t
492,8105351,"Mayfair Avenue North, Seattle, ",Seattle,WA,98109,47.64478716,-122.3513144,t
493,9136499,"14th Avenue West,",Seattle,WA,98119,47.64535059,-122.3751942,t
494,3639023,"Prosch Avenue West,",Seattle,WA,98119,47.64480022,-122.3739315,t
495,6724599,"7th Avenue West,",Seattle,WA,98119,47.64018626,-122.3663757,t
496,4211629,"11th Avenue West,",Seattle,WA,98119,47.64936686,-122.3722474,t
497,7151924,"West Raye Street,",Seattle,WA,98119,47.64314986,-122.3589524,t
498,704764,"11th Ave W,",Seattle,WA,98119,47.64215181,-122.3695928,t
499,1796217,"Florentia Street, Seattle, ",Seattle,WA,98109,47.64783678,-122.3561688,t
500,4661812,"Gilman Drive West,",Seattle,WA,98119,47.64402085,-122.3755716,t
501,8811945,"10th Avenue West,",Seattle,WA,98119,47.64266228,-122.371084,t
502,1090307,"Northeast 65th Street, ",Seattle,WA,98115,47.67701505,-122.3308477,t
503,15108,"Burke Ave N, ",Seattle,WA,98103,47.68826555,-122.3358555,t
504,1882316,"North 80th Street, ",Seattle,WA,98103,47.68614501,-122.332185,t
505,1095207,"North 76th Street, ",Seattle,WA,98103,47.68532672,-122.3423891,t
506,1343805,"5th Avenue Northeast, ",Seattle,WA,98115,47.67330354,-122.322513,t
507,9217150,"East Green Lake Way North, ",Seattle,WA,98115,47.67803024,-122.326485,t
508,103920,"NE 77th St, ",Seattle,WA,98115,47.68415691,-122.3259722,t
509,2215336,"Woodlawn Avenue North, ",Seattle,WA,98103,47.67373141,-122.3345713,t
510,1483944,"Caroline Avenue North, ",Seattle,WA,98103,47.6897677,-122.3346466,t
511,6466129,"East Green Lake Way North, ",Seattle,WA,98103,47.67467647,-122.3334962,t
512,8536441,"North 61st Street, ",Seattle,WA,98103,47.67335778,-122.3273253,t
513,6262987,"Latona Avenue Northeast, ",Seattle,WA,98115,47.67491184,-122.3252381,t
514,8379081,,Seattle,WA,98115,47.67431015,-122.3226601,t
515,8365938,"NE Ravenna Blvd, ",Seattle,WA,98115,47.67708444,-122.3235236,f
516,9921445,"North 63rd Street, ",Seattle,WA,98103,47.67452613,-122.333473,t
517,132160,"Winona Ave N, ",Seattle,WA,98103,47.68226061,-122.34345,t
518,2033191,"East Green Lake Way North, ",Seattle,WA,98103,47.67556915,-122.332773,t
519,8849407,"4th Avenue Northeast, ",Seattle,WA,98115,47.67650239,-122.3255528,t
520,9922335,"North 63rd Street, ",Seattle,WA,98103,47.67535854,-122.3333845,t
521,7243974,"6th Avenue Northeast, ",Seattle,WA,98115,47.67605812,-122.3232793,t
522,6490453,"Chapin Place North, ",Seattle,WA,98103,47.67633824,-122.3295859,t
523,4025593,"Weedin Place Northeast, ",Seattle,WA,98115,47.6780561,-122.3222456,t
524,8556103,"North 80th Street, ",Seattle,WA,98103,47.68770668,-122.3357777,t
525,955506,"Stone Avenue North, ",Seattle,WA,98103,47.69044857,-122.3421874,t
526,9868607,"4th Avenue Northeast, ",Seattle,WA,98115,47.67552251,-122.3242977,t
527,8668073,"5th Avenue Northeast, ",Seattle,WA,98115,47.67232267,-122.3219423,t
528,790860,"Northeast 77th Street, ",Seattle,WA,98115,47.68532979,-122.3248518,t
529,261912,"Winona Ave N, ",Seattle,WA,98103,47.68378067,-122.3420128,t
530,368403,"Bagley Ave N, ",Seattle,WA,98103,47.68354474,-122.3309111,t
531,9878971,"North 64th Street, ",Seattle,WA,98103,47.67468991,-122.3324155,t
532,5602370,"2nd Avenue Northeast, ",Seattle,WA,98115,47.6858705,-122.327567,t
533,9395217,"Northeast 70th Street, ",Seattle,WA,98115,47.68009638,-122.3234211,t
534,7331079,"Northeast 62nd Street, ",Seattle,WA,98115,47.67314449,-122.3259531,t
535,580182,"Sunnyside Avenue North, ",Seattle,WA,98103,47.67659659,-122.3307759,t
536,8152191,"Latona Avenue Northeast, ",Seattle,WA,98115,47.67644022,-122.3274933,t
537,103908,"NE 77th St, ",Seattle,WA,98115,47.68427308,-122.3266159,t
538,783061,"N 57th St, ",Seattle,WA,98103,47.6703066,-122.3390952,t
539,7901725,"North 65th Street, ",Seattle,WA,98103,47.67571999,-122.3321768,t
540,4968752,"Northeast 64th Street, ",Seattle,WA,98115,47.67853736,-122.3250134,t
541,14386,"Burke Ave N, ",Seattle,WA,98103,47.68724568,-122.3346957,t
542,7517215,"E Green Lake Way N, ",Seattle,WA,98103,47.67345534,-122.3372121,f
543,1602421,"Burke Avenue North, ",Seattle,WA,98103,47.68713059,-122.3345137,t
544,3821822,"North 81st Street, ",Seattle,WA,98103,47.68833693,-122.3439074,t
545,6073437,"North 65th Street, ",Seattle,WA,98103,47.6761145,-122.3324381,t
546,7917700,"East Green Lake Way N, ",Seattle,WA,98103,47.67132207,-122.3368268,f
547,6278181,"Latona Avenue Northeast, ",Seattle,WA,98115,47.67478054,-122.3246218,t
548,4279578,"Woodlawn Avenue Northeast, ",Seattle,WA,98115,47.68190776,-122.3278534,t
549,9907337,"Kirkwood Place North, ",Seattle,WA,98103,47.67513918,-122.3332839,t
550,1796861,"Latona Avenue Northeast, ",Seattle,WA,98115,47.67572403,-122.3246928,t
551,4211836,"5th Ave NE, ",Seattle,WA,98115,47.68110584,-122.3239465,f
552,4025954,"Sunnyside Avenue North, ",Seattle,WA,98103,47.67673937,-122.3301907,t
553,6154478,"Densmore Ave N, ",Seattle,WA,98103,47.68653224,-122.3377733,f
554,84030,"Winona Ave N, ",Seattle,WA,98103,47.68472182,-122.3388215,t
555,4235559,"Meridian Avenue North, ",Seattle,WA,98103,47.68890691,-122.3340131,t
556,830948,"Galer St, Seattle, ",Seattle,WA,98109,47.63347386,-122.3434448,t
557,3468261,"Dexter Avenue North, Seattle, ",Seattle,WA,98109,47.62794326,-122.3412705,t
558,10026648,"Dexter Avenue North, Seattle, ",Seattle,WA,98109,47.62866402,-122.3427092,t
559,9117633,"Aurora Avenue North, Seattle, ",Seattle,WA,98109,47.63201049,-122.3427368,t
560,9158383,"Dexter Avenue North, Seattle, ",Seattle,WA,98109,47.63296627,-122.3413052,t
561,1145590,"Galer Street, Seattle, ",Seattle,WA,98109,47.63340284,-122.3426307,t
562,5020848,"Westlake Avenue North, Seattle, ",Seattle,WA,98109,47.63119424,-122.3413036,t
563,9600159,"Crockett Street, Seattle, ",Seattle,WA,98109,47.63619004,-122.3425886,t
564,3522409,"Westlake Avenue North, Seattle, ",Seattle,WA,98109,47.63615549,-122.3404212,t
565,9492873,"Garfield Street, Seattle, ",Seattle,WA,98109,47.63262639,-122.3418006,t
566,5534463,"Westlake Avenue North, Seattle, ",Seattle,WA,98109,47.63167352,-122.3405082,t
567,9409233,"Westlake Avenue North, Seattle, ",Seattle,WA,98109,47.63730097,-122.3401569,t
568,9531265,"Westlake Avenue, ",Seattle,WA,98101,47.62937474,-122.3397464,t
569,5364609,"Ward Street, Seattle, ",Seattle,WA,98109,47.62715965,-122.3432228,t
570,6629132,"Aurora Ave N, Seattle, ",Seattle,WA,98109,47.63058331,-122.3434493,t
571,5489676,"Ward Street, Seattle, ",Seattle,WA,98109,47.62820157,-122.343516,t
572,9347157,"Dexter Avenue North, Seattle, ",Seattle,WA,98109,47.63435769,-122.3409903,t
573,10035644,"East Denny Way, ",Seattle,WA,98122,47.62001637,-122.2998046,f
574,8293287,"24th Avenue, ",Seattle,WA,98122,47.61331951,-122.3005669,t
575,910784,"East Olive Street, ",Seattle,WA,98122,47.61375392,-122.3004575,t
576,7071222,"East Thomas Street,",Seattle,WA,98112,47.62191137,-122.2975011,t
577,8687716,"East Union Street, ",Seattle,WA,98122,47.61303672,-122.2994532,t
578,7430679,"27th Avenue, ",Seattle,WA,98122,47.61825285,-122.2984679,t
579,180939,"26th Ave, ",Seattle,WA,98122,47.61305967,-122.297385,t
580,6884604,"25th Avenue, ",Seattle,WA,98122,47.60312697,-122.3006707,t
581,7397476,"East Thomas Street,",Seattle,WA,98112,47.62091627,-122.2979149,t
582,1063855,"26th Avenue, ",Seattle,WA,98122,47.61219763,-122.2977715,t
583,8865006,"24th Avenue, ",Seattle,WA,98122,47.61858617,-122.3015051,t
584,8069192,"27th Avenue, ",Seattle,WA,98122,47.61608361,-122.2981707,t
585,2800448,"A 23rd Avenue, ",Seattle,WA,98122,47.60327025,-122.3021606,t
586,9076287,"24th Avenue, ",Seattle,WA,98122,47.617632,-122.3005565,t
587,7462439,"24th Avenue, ",Seattle,WA,98122,47.61780091,-122.3000238,t
588,8225635,"26th Avenue East,",Seattle,WA,98112,47.62039309,-122.2995755,t
589,2966415,"26th Avenue, ",Seattle,WA,98122,47.61982203,-122.2979645,t
590,4639465,"East Howell Street, ",Seattle,WA,98122,47.61894868,-122.2983498,t
591,7402190,"East Marion Street, ",Seattle,WA,98122,47.61110455,-122.2991321,t
592,9448719,"East Union Street, ",Seattle,WA,98122,47.61401049,-122.2966074,t
593,5670781,"27th Avenue, ",Seattle,WA,98122,47.60957776,-122.2988641,t
594,1905473,"27th Avenue, ",Seattle,WA,98122,47.60526922,-122.2987883,t
595,7266662,"26th Avenue, ",Seattle,WA,98122,47.60423775,-122.2994468,t
596,9095510,"24th Avenue, ",Seattle,WA,98122,47.61818758,-122.3019211,t
597,7401854,"East Marion Street, ",Seattle,WA,98122,47.60888015,-122.2987123,t
598,5174876,"24th Avenue, ",Seattle,WA,98122,47.61433214,-122.3013293,t
599,1256883,"24th Avenue, ",Seattle,WA,98122,47.61481815,-122.3003435,t
600,8072850,"22nd Avenue, ",Seattle,WA,98122,47.60921741,-122.3025701,t
601,6706377,"Martin Luther King Junior Way, ",Seattle,WA,98122,47.60846512,-122.2968542,t
602,9738522,"25th Avenue, ",Seattle,WA,98122,47.61215749,-122.3011966,t
603,2995996,"27th Avenue East,",Seattle,WA,98112,47.62013918,-122.2963572,t
604,6674408,"23rd Avenue, ",Seattle,WA,98122,47.61532061,-122.30176,t
605,6801095,"26th Avenue East,",Seattle,WA,98112,47.62022332,-122.2985775,t
606,143704,"E Spring St, ",Seattle,WA,98122,47.61231304,-122.2982522,t
607,9258305,"East Howell Street, ",Seattle,WA,98122,47.61871017,-122.2964238,t
608,3727017,"25th Avenue, ",Seattle,WA,98122,47.61518001,-122.3016135,t
609,789966,"E Pine St, ",Seattle,WA,98122,47.6128511,-122.2996815,t
610,6864319,"East Pike Street, ",Seattle,WA,98122,47.61323754,-122.2976686,t
611,1539463,"East Pine Street, ",Seattle,WA,98122,47.61398129,-122.2967398,t
612,9591787,"25th Avenue East,",Seattle,WA,98112,47.61893324,-122.2998512,t
613,10279830,"East Spring Street, ",Seattle,WA,98122,47.61118873,-122.3007846,t
614,1956553,"Martin Luther King Jr. Way, ",Seattle,WA,98122,47.61662263,-122.298606,t
615,7396508,"East Thomas Street,",Seattle,WA,98112,47.62088255,-122.2977449,t
616,6272065,"24th Avenue, ",Seattle,WA,98122,47.61297673,-122.3014731,t
617,7072218,"25th Avenue, ",Seattle,WA,98122,47.61379617,-122.3007285,t
618,7075948,"27th Avenue, ",Seattle,WA,98122,47.61942863,-122.2982765,t
619,7543458,"East Spring Street, ",Seattle,WA,98122,47.61119778,-122.3010867,t
620,3769336,"27th Avenue East,",Seattle,WA,98112,47.6182221,-122.2985362,t
621,8666707,"East Marion Street, ",Seattle,WA,98122,47.61049873,-122.2972573,t
622,7205443,"23rd Avenue, ",Seattle,WA,98122,47.6101556,-122.3024077,t
623,193371,"27th Ave E,",Seattle,WA,98112,47.62233688,-122.2974357,t
624,9957555,"26th Avenue, ",Seattle,WA,98122,47.60952299,-122.2986581,t
625,6795678,"Martin Luther King Junior Way, ",Seattle,WA,98122,47.60810282,-122.2970611,t
626,9300972,"25th Ave E,",Seattle,WA,98112,47.61847456,-122.2986787,f
627,8047522,"27th Ave E, ",Seattle,WA,98122,47.61710244,-122.2965592,t
628,9457328,"25th Avenue, ",Seattle,WA,98122,47.6104028,-122.3003326,f
629,6576006,"25th Avenue East,",Seattle,WA,98112,47.61916109,-122.2986551,t
630,7971334,"24th Avenue, ",Seattle,WA,98122,47.6172088,-122.3017538,t
631,1984962,"East Union Street, ",Seattle,WA,98122,47.6128668,-122.2984791,t
632,9292039,"24th Avenue, ",Seattle,WA,98122,47.61560788,-122.301896,t
633,6661617,"25th Avenue, ",Seattle,WA,98122,47.6174257,-122.3009016,t
634,8848854,"24th Avenue, ",Seattle,WA,98122,47.60881884,-122.3007355,t
635,3251069,"East Pike Street, ",Seattle,WA,98122,47.61294386,-122.2985568,t
636,4111137,"26th Avenue, ",Seattle,WA,98122,47.61837466,-122.2977052,t
637,4760472,"23rd Avenue, ",Seattle,WA,98122,47.61027136,-122.3018688,t
638,8968925,"27th Ave, ",Seattle,WA,98122,47.61596816,-122.2982173,f
639,3293438,"24th Avenue, ",Seattle,WA,98122,47.60279528,-122.3016744,t
640,9210978,"Martin Luther King Junior Way, ",Seattle,WA,98122,47.60913636,-122.2951883,t
641,3319386,"34th Avenue East,",Seattle,WA,98112,47.61831634,-122.2900493,t
642,7717813,"East Denny Way, ",Seattle,WA,98122,47.61815492,-122.2875826,t
643,5578943,"31st Avenue, ",Seattle,WA,98122,47.61635682,-122.291336,t
644,7660932,"E Florence Ct,",Seattle,WA,98112,47.61356638,-122.2900576,f
645,4271221,"37th Avenue, ",Seattle,WA,98122,47.60926371,-122.2857323,t
646,6358605,"32nd Avenue, ",Seattle,WA,98122,47.61619938,-122.2911922,t
647,1439237,"34th Avenue, ",Seattle,WA,98122,47.60823705,-122.2900896,t
648,7775167,"Grand Avenue, ",Seattle,WA,98122,47.61316307,-122.2823255,t
649,7437784,"East Howell Street, ",Seattle,WA,98122,47.61708715,-122.2931394,t
650,9628972,"29th Avenue, ",Seattle,WA,98122,47.61043977,-122.2956121,t
651,8425013,"34th Avenue, ",Seattle,WA,98122,47.6150055,-122.2900015,t
652,6925807,"33rd Avenue, ",Seattle,WA,98122,47.61455596,-122.2901788,t
653,7400955,"30th Avenue, ",Seattle,WA,98122,47.61093922,-122.2940892,t
654,8174389,,Seattle,WA,98122,47.61093444,-122.2938206,f
655,6292452,"31st Avenue, ",Seattle,WA,98122,47.61096566,-122.2933271,t
656,9095668,"30th Avenue, ",Seattle,WA,98122,47.60865741,-122.2948638,t
657,413733,"29th Ave, ",Seattle,WA,98122,47.60907002,-122.2961326,t
658,8783900,"East Pike Street, ",Seattle,WA,98122,47.61495757,-122.2891259,t
659,639130,"33rd Ave, ",Seattle,WA,98122,47.60974857,-122.2901086,t
660,2484067,"East Howell Street, ",Seattle,WA,98122,47.61632845,-122.2954818,t
661,3533112,"Martin Luther King Junior Way, ",Seattle,WA,98122,47.61028148,-122.2957444,t
662,2249292,"32nd Avenue, ",Seattle,WA,98122,47.60814372,-122.2919629,t
663,7838294,"East Pine Street, ",Seattle,WA,98122,47.61498154,-122.2835697,t
664,6133354,"Martin Luther King Junior Way East,",Seattle,WA,98112,47.61853609,-122.2957238,t
665,7987836,"34th Avenue, ",Seattle,WA,98122,47.61251153,-122.2899442,t
666,9910025,"29th Avenue, ",Seattle,WA,98122,47.61121662,-122.2960782,t
667,7364024,"30th Avenue, ",Seattle,WA,98122,47.61601739,-122.2926619,t
668,9362082,"31st Avenue, ",Seattle,WA,98122,47.6101887,-122.2921704,f
669,8847108,"East Spring Street, ",Seattle,WA,98122,47.61152475,-122.2888187,t
670,7462428,"32nd Avenue, ",Seattle,WA,98122,47.61126858,-122.2914648,t
671,4370312,"37th Avenue, ",Seattle,WA,98122,47.61568371,-122.285174,t
672,4053972,"38th Avenue, ",Seattle,WA,98122,47.61593276,-122.2853141,t
673,6209191,"32nd Avenue, ",Seattle,WA,98122,47.61750858,-122.2920226,t
674,10123910,"40th Avenue, ",Seattle,WA,98122,47.61589742,-122.2820429,t
675,6412858,"29th Ave, ",Seattle,WA,98122,47.61519939,-122.2941785,f
676,3987838,"29th Ave., ",Seattle,WA,98122,47.60808439,-122.2943425,t
677,7027507,"32nd Avenue, ",Seattle,WA,98122,47.61625334,-122.2930666,t
678,6587443,"29th Avenue, ",Seattle,WA,98122,47.61512549,-122.2944282,t
679,10204689,"East Spring Street, ",Seattle,WA,98122,47.61171081,-122.287723,t
680,1029680,"34th Avenue, ",Seattle,WA,98122,47.61608833,-122.2885017,t
681,7208439,"40th Avenue, ",Seattle,WA,98122,47.61553436,-122.2830025,t
682,8327765,"37th Ave, ",Seattle,WA,98122,47.6105636,-122.2863438,f
683,3953611,"East Florence Court,",Seattle,WA,98112,47.61835336,-122.287456,t
684,2584354,"East Howell Street, ",Seattle,WA,98122,47.61648989,-122.2940182,t
685,4574700,"31st Avenue, ",Seattle,WA,98122,47.61217344,-122.2919284,t
686,5685646,"East Pine Street, ",Seattle,WA,98122,47.61556576,-122.2852787,t
687,977722,"21st Avenue Northeast,",Seattle,WA,98105,47.6651984,-122.305289,t
688,2931922,"Ravenna Avenue Northeast,",Seattle,WA,98105,47.66415028,-122.3039721,t
689,8253955,"Northeast 55th Street,",Seattle,WA,98105,47.66940738,-122.3083482,t
690,6426462,"Ravenna Avenue Northeast,",Seattle,WA,98105,47.66404593,-122.3035321,t
691,8154238,"Northeast 42nd Street,",Seattle,WA,98105,47.65732911,-122.3174674,t
692,5020861,"15th Avenue Northeast,",Seattle,WA,98105,47.66449697,-122.3127727,t
693,9611409,"North 39th Street, ",Seattle,WA,98103,47.659933,-122.3214421,t
694,9282348,"22nd Avenue Northeast,",Seattle,WA,98105,47.66215516,-122.3035447,t
695,8939306,"16th Ave NE,",Seattle,WA,98105,47.66422452,-122.309741,f
696,5423692,"Northeast 53rd Street,",Seattle,WA,98105,47.66778803,-122.3199847,t
697,9159975,"7th Avenue Northeast,",Seattle,WA,98105,47.65749175,-122.3198978,t
698,7561272,"11th Avenue Northeast,",Seattle,WA,98105,47.66664004,-122.3164824,t
699,7326419,"11th Avenue Northeast,",Seattle,WA,98105,47.66722261,-122.3167983,t
700,9373607,"7th Avenue Northeast,",Seattle,WA,98105,47.65889785,-122.3221733,t
701,6717555,"Apex Apartments, 4233 7th Avenue Northeast,",Seattle,WA,98105,47.65900535,-122.3217559,t
702,8939433,"16th Ave NE,",Seattle,WA,98105,47.66491325,-122.3097638,f
703,8939503,"16th Ave NE,",Seattle,WA,98105,47.66339352,-122.3114961,f
704,8742753,"16th Avenue Northeast,",Seattle,WA,98105,47.6613099,-122.3100722,f
705,8939687,"16th Ave NE,",Seattle,WA,98105,47.6645209,-122.3095983,f
706,3793406,"Northeast 61st Street, ",Seattle,WA,98115,47.67205628,-122.3177189,t
707,9134196,"12th Avenue Northeast,",Seattle,WA,98105,47.65737284,-122.3146063,t
708,6007267,"11th Avenue Northeast,",Seattle,WA,98105,47.66637834,-122.3168925,t
709,3422894,"12th Avenue Northeast,",Seattle,WA,98105,47.6589087,-122.3147936,t
710,3630581,"Brooklyn Avenue NE,",Seattle,WA,98105,47.66218141,-122.3133911,t
711,9394508,"11th Avenue Northeast,",Seattle,WA,98105,47.65732954,-122.3178094,t
712,7348578,"11th Avenue Northeast,",Seattle,WA,98105,47.66695593,-122.3155975,t
713,8869680,"University Way Northeast,",Seattle,WA,98105,47.65707082,-122.3142602,t
714,7678429,"9th Avenue Northeast,",Seattle,WA,98105,47.65634217,-122.3188398,t
715,2979387,"8th Avenue Northeast,",Seattle,WA,98105,47.66494949,-122.3211328,t
716,1531458,"22nd Avenue Northeast,",Seattle,WA,98105,47.66701648,-122.3044009,t
717,1549973,"11th Avenue NE,",Seattle,WA,98105,47.65917007,-122.3165354,t
718,1123977,"18th Avenue Northeast,",Seattle,WA,98105,47.66456191,-122.3083994,t
719,5719631,"11th ave NE,",Seattle,WA,98105,47.65892905,-122.3163078,t
720,9580209,"Ravenna Avenue Northeast,",Seattle,WA,98105,47.66314003,-122.30285,t
721,9364220,"12th Avenue Northeast,",Seattle,WA,98105,47.65760578,-122.3144447,t
722,9663221,"Brooklyn Avenue Northeast,",Seattle,WA,98105,47.66239538,-122.3146298,t
723,9636952,"Brooklyn Avenue Northeast,",Seattle,WA,98105,47.6630712,-122.3130173,t
724,8594059,"12th Avenue Northeast,",Seattle,WA,98105,47.67056917,-122.3157949,t
725,6278756,"Roosevelt Way Northeast,",Seattle,WA,98105,47.65641449,-122.3172383,t
726,3679617,"Brooklyn Avenue Northeast,",Seattle,WA,98105,47.66169364,-122.3129142,t
727,9416551,"Brooklyn Avenue Northeast,",Seattle,WA,98105,47.66314544,-122.313413,t
728,8322107,",",Seattle,WA,98105,47.65730353,-122.3186601,t
729,9511676,"Pasadena Pl NE,",Seattle,WA,98105,47.65741764,-122.3206441,f
730,3158243,"Ravenna Avenue Northeast,",Seattle,WA,98105,47.6643652,-122.3032258,t
731,8327124,"NE 55th Street,",Seattle,WA,98105,47.66757538,-122.3187156,t
732,4311078,"18th Avenue NE and ME 55th St,",Seattle,WA,98105,47.66825152,-122.3094497,f
733,3329962,"11th Avenue Northeast,",Seattle,WA,98105,47.65962584,-122.3174207,t
734,3263071,"11th Avenue Northeast,",Seattle,WA,98105,47.65753036,-122.3178532,t
735,7302675,"Northeast 43rd Street,",Seattle,WA,98105,47.6593293,-122.3134565,t
736,6250399,"Brooklyn Avenue Northeast,",Seattle,WA,98105,47.66145428,-122.3129249,t
737,7387294,"11th Avenue Northeast,",Seattle,WA,98105,47.66749233,-122.3152824,t
738,7363462,"11th Avenue Northeast,",Seattle,WA,98105,47.66667724,-122.3163437,t
739,6796336,"9th Avenue Northeast,",Seattle,WA,98105,47.66622474,-122.3176093,t
740,8156894,"Northeast 42nd Street,",Seattle,WA,98105,47.65865765,-122.3189667,t
741,1150519,"Northeast 61st Street, ",Seattle,WA,98115,47.6713697,-122.3157987,t
742,5969872,"Roosevelt Way Northeast,",Seattle,WA,98105,47.67140573,-122.3167847,t
743,9617068,"8th Avenue Northeast,",Seattle,WA,98105,47.66311747,-122.3188134,f
744,4438188,"9th Avenue Northeast,",Seattle,WA,98105,47.66818255,-122.3173717,t
745,1521633,"11th Avenue Northeast,",Seattle,WA,98105,47.65712478,-122.3178221,t
746,6623079,"Northeast 42nd Street,",Seattle,WA,98105,47.65700652,-122.3196197,t
747,7561254,"11th Avenue Northeast,",Seattle,WA,98105,47.66709569,-122.3168086,t
748,3494608,"7th Avenue Northeast,",Seattle,WA,98105,47.66580428,-122.3208876,t
749,3085726,"Brooklyn Avenue Northeast,",Seattle,WA,98105,47.66250162,-122.3134163,t
750,2256124,"Brooklyn Avenue Northeast,",Seattle,WA,98105,47.6669145,-122.3142734,t
751,7071021,"Brooklyn Ave NE,",Seattle,WA,98105,47.66125018,-122.3143933,t
752,9465815,"24th Avenue Northeast,",Seattle,WA,98105,47.66581866,-122.3031713,t
753,6938103,"Northeast 53rd Street,",Seattle,WA,98105,47.66765063,-122.3194801,t
754,6913414,"12th Avenue Northeast,",Seattle,WA,98105,47.67119879,-122.3150932,t
755,3706719,"Brooklyn Avenue Northeast,",Seattle,WA,98105,47.66132295,-122.3149835,t
756,8174626,"19th Avenue Northeast,",Seattle,WA,98105,47.66443671,-122.3067381,t
757,1571230,"Brooklyn Avenue Northeast,",Seattle,WA,98105,47.66116769,-122.3146512,t
758,4270642,"Brooklyn Avenue Northeast,",Seattle,WA,98105,47.66101092,-122.3137344,t
759,5407311,"Ravenna Avenue Northeast,",Seattle,WA,98105,47.6626723,-122.3043698,t
760,9976135,"7th Avenue Northeast,",Seattle,WA,98105,47.65895309,-122.3219786,t
761,9558353,"Brooklyn Avenue Northeast,",Seattle,WA,98105,47.66148495,-122.3156934,t
762,7247767,"Brooklyn Ave NE,",Seattle,WA,98105,47.66852258,-122.315454,f
763,7035077,"NE 55th St,",Seattle,WA,98105,47.66948569,-122.3145501,f
764,7353834,"Brooklyn Avenue Northeast,",Seattle,WA,98105,47.66129401,-122.313182,t
765,9319891,"Ravenna Avenue Northeast,",Seattle,WA,98105,47.66317893,-122.3039904,t
766,6575407,"8th Avenue Northeast,",Seattle,WA,98105,47.66404703,-122.3182195,t
767,7550234,"11th Avenue Northeast,",Seattle,WA,98105,47.66871493,-122.3163162,t
768,8939736,"16th Ave NE,",Seattle,WA,98105,47.66312229,-122.3098396,f
769,7247720,"Brooklyn Avenue Northeast,",Seattle,WA,98105,47.66833788,-122.315186,t
770,1786923,"11th Avenue Northeast,",Seattle,WA,98105,47.65836316,-122.3180063,t
771,7649837,"8th Avenue Northeast,",Seattle,WA,98105,47.66109671,-122.318774,t
772,3610724,"Ravenna Avenue Northeast,",Seattle,WA,98105,47.66442357,-122.3032119,t
773,7988337,"Brooklyn Avenue Northeast,",Seattle,WA,98105,47.66044158,-122.3137683,t
774,1773803,"University Way Northeast,",Seattle,WA,98105,47.65877003,-122.3136904,t
775,7536074,"Brooklyn Avenue Northeast,",Seattle,WA,98105,47.65825774,-122.313566,t
776,3770248,"Brooklyn Avenue Northeast,",Seattle,WA,98105,47.66154612,-122.3147937,t
777,9097754,"18th Avenue Northeast,",Seattle,WA,98105,47.66856587,-122.307462,t
778,3291295,"9th Avenue Northeast,",Seattle,WA,98105,47.65883581,-122.3181496,t
779,8171726,"12th Avenue Northeast,",Seattle,WA,98105,47.65721706,-122.3142329,t
780,10031055,"11th Ave NE,",Seattle,WA,98105,47.6669221,-122.3172019,f
781,8939595,"16th Ave NE,",Seattle,WA,98105,47.66299472,-122.3102215,f
782,8155580,"Northeast 42nd Street,",Seattle,WA,98105,47.65824886,-122.3176389,t
783,6705584,"11th Avenue Northeast,",Seattle,WA,98105,47.65856121,-122.3160866,t
784,1417880,"Brooklyn Avenue Northeast,",Seattle,WA,98105,47.66147374,-122.3135628,t
785,7245692,"11th Ave NE,",Seattle,WA,98105,47.66765748,-122.3178072,f
786,7153101,"7th Avenue Northeast,",Seattle,WA,98105,47.65665819,-122.3203138,t
787,9014572,"16th Avenue Northeast,",Seattle,WA,98105,47.66270103,-122.3097321,f
788,585418,"Ravenna Avenue Northeast,",Seattle,WA,98105,47.66448575,-122.3046706,t
789,4484426,"Ravenna Avenue NE,",Seattle,WA,98105,47.6623606,-122.302424,t
790,3291777,"11th Avenue Northeast,",Seattle,WA,98105,47.65863155,-122.3177664,t
791,3096191,"Ravenna Avenue Northeast,",Seattle,WA,98105,47.66321788,-122.3043709,t
792,9865846,"Roosevelt Way Northeast,",Seattle,WA,98105,47.66713218,-122.3164489,f
793,6249536,"Brooklyn Avenue Northeast,",Seattle,WA,98105,47.66313458,-122.3145582,t
794,5744931,"19th Avenue Northeast,",Seattle,WA,98105,47.66396766,-122.3065185,t
795,8156764,"Northeast 42nd Street,",Seattle,WA,98105,47.65731409,-122.31976,t
796,3303857,"11th Avenue Northeast,",Seattle,WA,98105,47.65860891,-122.317713,t
797,8155710,"Northeast 42nd Street,",Seattle,WA,98105,47.65688213,-122.318273,t
798,3843706,"Northeast 61st Street, ",Seattle,WA,98115,47.67160466,-122.3157654,t
799,8156860,"Northeast 42nd Street,",Seattle,WA,98105,47.65697102,-122.3189181,t
800,9316399,"15th Avenue Northeast,",Seattle,WA,98105,47.66391817,-122.3113423,t
801,293890,"11th Ave NE,",Seattle,WA,98105,47.66902314,-122.3158825,t
802,7915432,"16th Avenue Northeast,",Seattle,WA,98105,47.66353217,-122.3114915,t
803,7501583,"Northeast 56th Street,",Seattle,WA,98105,47.66881617,-122.3184417,t
804,10126050,"12th Avenue Northeast,",Seattle,WA,98105,47.65741412,-122.3158241,t
805,7807658,"Northeast 43rd Street,",Seattle,WA,98105,47.6604882,-122.3148349,t
806,1589461,"11th Avenue Northeast,",Seattle,WA,98105,47.65697036,-122.3157798,t
807,9303530,"11th Avenue Northeast,",Seattle,WA,98105,47.65747556,-122.3175427,t
808,7809718,"11th Avenue Northeast,",Seattle,WA,98105,47.67042422,-122.3152792,t
809,140331,"33rd Ave E,",Seattle,WA,98112,47.61893903,-122.2921234,t
810,9462315,"31st Avenue East,",Seattle,WA,98112,47.62371457,-122.2912274,t
811,565703,"East Thomas Street,",Seattle,WA,98112,47.6201619,-122.2958143,t
812,1147349,"30th Avenue East,",Seattle,WA,98112,47.62459342,-122.2945468,t
813,7262358,"McGilvra Boulevard East,",Seattle,WA,98112,47.63051112,-122.2817713,t
814,723723,"E Denny Way,",Seattle,WA,98112,47.61966237,-122.2895565,t
815,4757025,"32nd Avenue East,",Seattle,WA,98112,47.62543446,-122.2904389,t
816,3334052,"East Thomas Street,",Seattle,WA,98112,47.6203323,-122.2955346,t
817,7036707,"Martin Luther King Junior Way East,",Seattle,WA,98112,47.62302601,-122.2952981,t
818,5272327,"29th Ave E,",Seattle,WA,98112,47.62250279,-122.2956157,t
819,3921664,"31st Avenue East,",Seattle,WA,98112,47.6241695,-122.2930447,t
820,9974658,"East Denny Way, ",Seattle,WA,98122,47.6193169,-122.2873737,t
821,2727984,"East Florence Court,",Seattle,WA,98112,47.61839318,-122.2867806,t
822,794633,"30th Avenue East,",Seattle,WA,98112,47.62536071,-122.2915178,t
823,3959442,"15th Avenue, ",Seattle,WA,98122,47.60950173,-122.3117716,t
824,6761267,"East Jefferson Street, ",Seattle,WA,98122,47.60676849,-122.3134377,t
825,6824408,"21st Avenue, ",Seattle,WA,98122,47.60510734,-122.3037078,t
826,2526129,"21st Avenue, ",Seattle,WA,98122,47.6119061,-122.3033487,t
827,7859906,"c 13th Ave, ",Seattle,WA,98122,47.61136902,-122.3145287,t
828,9636248,"East Union Street, ",Seattle,WA,98122,47.61351809,-122.3116054,t
829,4623541,"East Union Street, ",Seattle,WA,98122,47.61109191,-122.3066484,t
830,1970725,"East Pine Street, ",Seattle,WA,98122,47.61562815,-122.3078369,t
831,4418480,"East Union Street, ",Seattle,WA,98122,47.6125167,-122.3143453,t
832,911001,"18th Avenue, ",Seattle,WA,98122,47.61397307,-122.3078883,t
833,6670332,"East Marion Street, ",Seattle,WA,98122,47.60844249,-122.310376,t
834,1249060,"16th Avenue, ",Seattle,WA,98122,47.60518579,-122.3123022,t
835,1566487,"22nd Avenue South,",Seattle,WA,98144,47.60308859,-122.305234,t
836,9711153,"18th Avenue, ",Seattle,WA,98122,47.6124754,-122.308582,f
837,444221,"E Jefferson St, ",Seattle,WA,98122,47.60552279,-122.3075301,t
838,1018204,"East Jefferson Street, ",Seattle,WA,98122,47.60562332,-122.3089055,t
839,4856986,"East Terrace Street, ",Seattle,WA,98122,47.60581271,-122.3040398,t
840,2130652,"21st Avenue, ",Seattle,WA,98122,47.60998161,-122.3046398,t
841,5524530,"19th Avenue, ",Seattle,WA,98122,47.60679614,-122.3090857,t
842,9216874,"19th Avenue, ",Seattle,WA,98122,47.60230965,-122.3057982,t
843,7971395,"East Spruce Street, ",Seattle,WA,98122,47.60489137,-122.3067103,t
844,2593263,"15th Avenue, ",Seattle,WA,98122,47.61066814,-122.3125534,t
845,443580,"E Jefferson St, ",Seattle,WA,98122,47.60663951,-122.3081398,t
846,1614502,"20th Avenue, ",Seattle,WA,98122,47.61025306,-122.3050493,t
847,4477426,"18th Avenue, ",Seattle,WA,98122,47.60315576,-122.3098553,t
848,7648716,"East Terrace Street, ",Seattle,WA,98122,47.60440567,-122.3054291,t
849,9696912,"15th Avenue, ",Seattle,WA,98122,47.61067856,-122.3126715,t
850,3585592,"East Madison Street, ",Seattle,WA,98122,47.61577894,-122.3068259,t
851,3757858,"East Marion Street, ",Seattle,WA,98122,47.60977692,-122.3130001,t
852,7219838,"East Jefferson Street, ",Seattle,WA,98122,47.60614936,-122.3038575,t
853,6022715,"19th Avenue, ",Seattle,WA,98122,47.60661261,-122.3066379,t
854,7685745,"20th Avenue, ",Seattle,WA,98122,47.60591073,-122.305446,t
855,4565370,"East Fir Street, ",Seattle,WA,98122,47.60338844,-122.307437,t
856,4783817,"18th Avenue, ",Seattle,WA,98122,47.61173102,-122.3082675,t
857,2593176,"15th Avenue, ",Seattle,WA,98122,47.61111051,-122.3119619,t
858,3143227,"15th Avenue, ",Seattle,WA,98122,47.61107513,-122.3136267,t
859,1214306,"18th Avenue, ",Seattle,WA,98122,47.61600214,-122.3080604,t
860,9448215,"14th Ave, 
",Seattle,WA,"99
98122",47.61107854,-122.3128201,f
861,9369481,"14th Ave, ",Seattle,WA,98122,47.61017418,-122.3127992,f
862,3533224,"16th Avenue, ",Seattle,WA,98122,47.60590764,-122.3139468,t
863,443736,"E Jefferson St, ",Seattle,WA,98122,47.60587457,-122.3079307,t
864,6675927,"23rd Avenue, ",Seattle,WA,98122,47.61687399,-122.3032697,t
865,1772119,"19th Avenue, ",Seattle,WA,98122,47.60620715,-122.3068346,t
866,7808495,"East Marion Street, ",Seattle,WA,98122,47.6097965,-122.3153297,t
867,4539948,"15th Avenue, ",Seattle,WA,98122,47.61040169,-122.313874,t
868,7768727,"13th Avenue, ",Seattle,WA,98122,47.60994589,-122.3156373,t
869,769213,"15th Ave, ",Seattle,WA,98122,47.60956186,-122.3150989,t
870,5328449,"East Union Street, ",Seattle,WA,98122,47.6115353,-122.3143253,t
871,1763809,"15th Avenue, ",Seattle,WA,98122,47.61065564,-122.3140728,t
872,1499596,"19th Avenue, ",Seattle,WA,98122,47.6029395,-122.3084089,t
873,4737727,"22nd Avenue, ",Seattle,WA,98122,47.61002734,-122.3043664,t
874,8242212,"East Alder Street, ",Seattle,WA,98122,47.60332553,-122.3138647,f
875,8186781,"13th Avenue, ",Seattle,WA,98122,47.61035829,-122.3140323,t
876,7229015,"23rd Avenue, ",Seattle,WA,98122,47.60415027,-122.3032345,t
877,5814207,"14th Avenue, ",Seattle,WA,98122,47.60213708,-122.3141425,t
878,2274086,"East Spring Street, ",Seattle,WA,98122,47.61241593,-122.314504,t
879,4387985,"East Marion Street, ",Seattle,WA,98122,47.61122138,-122.3069443,t
880,9909445,"East Barclay Court, ",Seattle,WA,98122,47.60767917,-122.3157153,t
881,7664899,"E Alder St, ",Seattle,WA,98122,47.60547479,-122.3094775,f
882,4773614,"East Union Street, ",Seattle,WA,98122,47.61350092,-122.312752,t
883,3946674,"East Fir Street, ",Seattle,WA,98122,47.60192242,-122.3079787,t
884,8616488,"East Pine Street, ",Seattle,WA,98122,47.61327641,-122.3149974,f
885,7518316,"E Columbia St, ",Seattle,WA,98122,47.60910412,-122.31115,f
886,5259194,"13th Avenue, ",Seattle,WA,98122,47.61180057,-122.3141614,t
887,9256702,"16th Avenue, ",Seattle,WA,98122,47.60941768,-122.3121007,t
888,9240289,"22nd Avenue, ",Seattle,WA,98122,47.61561719,-122.3043458,t
889,2032805,"19th Avenue, ",Seattle,WA,98122,47.60794615,-122.3075402,t
890,3751503,"East Marion Street, ",Seattle,WA,98122,47.61008938,-122.3136806,t
891,7581974,"East Terrace Street, ",Seattle,WA,98122,47.60409559,-122.3054089,t
892,6558980,"13th Ave & Marion St, ",Seattle,WA,98122,47.61108859,-122.3158229,f
893,2399736,"21st Avenue, ",Seattle,WA,98122,47.61057511,-122.3044013,t
894,8674765,"18th Avenue, ",Seattle,WA,98122,47.6137239,-122.3091643,f
895,6004165,"22nd Avenue, ",Seattle,WA,98122,47.6100663,-122.3048812,t
896,1826155,"19th Avenue, ",Seattle,WA,98122,47.6064609,-122.3074784,t
897,4857192,"East Terrace Street, ",Seattle,WA,98122,47.60632184,-122.3055772,t
898,7748905,"East Jefferson Street, ",Seattle,WA,98122,47.60550178,-122.3038369,t
899,973859,"21st Avenue, ",Seattle,WA,98122,47.60767478,-122.3056185,t
900,6716380,"21st Avenue, ",Seattle,WA,98122,47.61369416,-122.3073254,t
901,7953211,"20th Avenue, ",Seattle,WA,98122,47.60751122,-122.3075847,t
902,5241773,"13th Avenue, ",Seattle,WA,98122,47.61243073,-122.3158974,t
903,3144597,"24th Avenue, ",Seattle,WA,98122,47.61722524,-122.3026362,t
904,7698916,"East Union Street, ",Seattle,WA,98122,47.61350303,-122.3108026,t
905,7305969,"A 19th Ave, ",Seattle,WA,98122,47.61587834,-122.307739,t
906,5069495,"East Yesler Way, ",Seattle,WA,98122,47.60254407,-122.3098644,f
907,1817878,"18th Avenue, ",Seattle,WA,98122,47.60260013,-122.3095147,t
908,4430381,"16th Avenue, ",Seattle,WA,98122,47.6107524,-122.312152,t
909,6528192,"22nd Avenue, ",Seattle,WA,98122,47.61396248,-122.3041849,t
910,3177005,"East Union Street, ",Seattle,WA,98122,47.61245587,-122.3148894,t
911,4430233,"16th Avenue, ",Seattle,WA,98122,47.61093716,-122.3107331,t
912,670009,"18th Ave, ",Seattle,WA,98122,47.61240201,-122.3112072,f
913,4577542,"14th Avenue, ",Seattle,WA,98122,47.61092049,-122.3134896,t
914,6764646,"17th Ave, ",Seattle,WA,98122,47.60820377,-122.309995,f
915,4256705,"East Madison Street, ",Seattle,WA,98122,47.61497797,-122.3092361,t
916,8812578,"East Alder Street, ",Seattle,WA,98122,47.60373015,-122.3131471,t
917,341454,"16th Ave, ",Seattle,WA,98122,47.61037712,-122.3115658,t
918,8195629,"18th Avenue, ",Seattle,WA,98122,47.61280971,-122.3093698,t
919,2577625,"17th Avenue, ",Seattle,WA,98122,47.61006942,-122.3077298,t
920,555858,"18th Ave, ",Seattle,WA,98122,47.61014851,-122.3092557,f
921,4814811,"16th Avenue, ",Seattle,WA,98122,47.61046729,-122.3110913,t
922,9484823,"14th Ave, ",Seattle,WA,98122,47.61161948,-122.3142567,f
923,660603,"18th Ave, ",Seattle,WA,98122,47.614168,-122.3074669,t
924,3940265,"18th Avenue, ",Seattle,WA,98122,47.61422859,-122.3083819,t
925,7500976,"19th Avenue, ",Seattle,WA,98122,47.60725053,-122.3081946,t
926,9516608,"22nd Avenue, ",Seattle,WA,98122,47.61197874,-122.3036215,t
927,9712716,"15th Avenue, ",Seattle,WA,98122,47.61056399,-122.3129119,t
928,5813657,"East Spruce Street, ",Seattle,WA,98122,47.60419373,-122.3099201,t
929,8884826,"19th Avenue, ",Seattle,WA,98122,47.60262175,-122.3085165,f
930,1978743,"19th Avenue, ",Seattle,WA,98122,47.60761884,-122.3083246,t
931,6091789,"16th Avenue, ",Seattle,WA,98122,47.60848068,-122.3106915,t
932,6165353,"16th Avenue, ",Seattle,WA,98122,47.60951889,-122.3127036,t
933,1244053,"East Marion Street, ",Seattle,WA,98122,47.60712102,-122.3104627,t
934,8508223,"23rd Avenue, ",Seattle,WA,98122,47.61704032,-122.3028063,t
935,6991188,"East Marion Street, ",Seattle,WA,98122,47.61089433,-122.3044801,t
936,7344117,"East Yesler Way, ",Seattle,WA,98122,47.60230148,-122.3071731,t
937,9506766,"19th Avenue, ",Seattle,WA,98122,47.60613645,-122.3090328,t
938,6451305,"E Marion St, ",Seattle,WA,98122,47.60959625,-122.3164374,f
939,7531405,"East Fir Street, ",Seattle,WA,98122,47.60294718,-122.3132107,t
940,9612147,"East Fir Street, ",Seattle,WA,98122,47.60216456,-122.3118822,t
941,666897,"18th Ave, ",Seattle,WA,98122,47.61137404,-122.3074812,f
942,4061051,"18th Avenue, ",Seattle,WA,98122,47.61148293,-122.3097651,t
943,3394338,"East Marion Street, ",Seattle,WA,98122,47.61621959,-122.307324,t
944,4238106,"17th Avenue, ",Seattle,WA,98122,47.60927076,-122.3111256,t
945,7350059,"19th Avenue, ",Seattle,WA,98122,47.61155082,-122.3068164,t
946,5262750,"21st Avenue, ",Seattle,WA,98122,47.61210627,-122.3041249,t
947,2802844,"19th Avenue, ",Seattle,WA,98122,47.60187188,-122.307129,t
948,3123632,"15th Avenue, ",Seattle,WA,98122,47.61360689,-122.3124325,t
949,3024336,"13th Avenue, ",Seattle,WA,98122,47.61237958,-122.3137424,t
950,8652185,"20th Avenue, ",Seattle,WA,98122,47.60702962,-122.3069496,t
951,10192213,"East Barclay Court, ",Seattle,WA,98122,47.60663359,-122.3160647,t
952,3970736,"20th Avenue, ",Seattle,WA,98122,47.61441923,-122.3067207,t
953,4546924,"19th Avenue, ",Seattle,WA,98122,47.60863925,-122.3065334,t
954,2760901,"21st Avenue, ",Seattle,WA,98122,47.61340138,-122.3034553,t
955,3490239,"A 16th Ave, ",Seattle,WA,98122,47.6041844,-122.312639,t
956,3416217,"18th Avenue, ",Seattle,WA,98122,47.61250123,-122.3096554,t
957,5537833,"East Yesler Way, ",Seattle,WA,98122,47.60275515,-122.3119689,t
958,8372562,"Lakeside Avenue South, ",Seattle,WA,98144,47.59680105,-122.2884614,t
959,8866960,"South Charles Street, ",Seattle,WA,98144,47.596318,-122.2966468,t
960,3354614,"East Cherry Street, ",Seattle,WA,98122,47.60724932,-122.2941532,t
961,8953857,"32nd Avenue South, ",Seattle,WA,98144,47.59620078,-122.2908042,f
962,7093738,"Martin Luther King Junior Way South, ",Seattle,WA,98144,47.59515432,-122.2966662,t
963,5277900,"30th Avenue, ",Seattle,WA,98122,47.60393134,-122.2945169,t
964,1171574,"29th Avenue, ",Seattle,WA,98122,47.60781103,-122.2957674,t
965,1818754,"26th Avenue South, ",Seattle,WA,98144,47.59266596,-122.2975618,t
966,74328,"S Jackson St, ",Seattle,WA,98144,47.60238656,-122.295347,t
967,6728017,"28th Avenue South, ",Seattle,WA,98144,47.59526163,-122.2972129,t
968,2612399,"29th Avenue, ",Seattle,WA,98122,47.60744831,-122.2938155,t
969,2515795,"31st Avenue South, ",Seattle,WA,98144,47.59431107,-122.2944084,t
970,7093910,"Martin Luther King Junior Way South, ",Seattle,WA,98144,47.59537123,-122.2967295,t
971,4170863,"28th Avenue, ",Seattle,WA,98122,47.60459749,-122.296725,t
972,7941079,"S Irving St, ",Seattle,WA,98144,47.59259852,-122.2955471,f
973,1442973,"28th Avenue South, ",Seattle,WA,98144,47.59206643,-122.2935655,t
974,4396961,"30th Avenue, ",Seattle,WA,98122,47.60382449,-122.2932511,t
975,5859152,"South Irving Street, ",Seattle,WA,98144,47.59172642,-122.2959851,t
976,8555794,"29th Avenue South, ",Seattle,WA,98144,47.59482904,-122.295632,t
977,2112625,"28th Avenue South, ",Seattle,WA,98144,47.59394152,-122.291088,t
978,8814802,"31st Ave S, ",Seattle,WA,98144,47.60070745,-122.2932732,f
979,8273948,"Wellington Avenue, ",Seattle,WA,98122,47.60582903,-122.2852102,t
980,319768,"26th Ave S, ",Seattle,WA,98144,47.5957085,-122.2975686,t
981,1961671,"32nd Avenue, ",Seattle,WA,98122,47.60639203,-122.2906124,t
982,3691288,"Martin Luther King Junior Way South, ",Seattle,WA,98144,47.59708807,-122.2973948,t
983,8703557,"30th Avenue South, ",Seattle,WA,98144,47.59880163,-122.2924761,t
984,8525338,"29th Avenue South, ",Seattle,WA,98144,47.5944386,-122.2938703,t
985,8049470,"29th Avenue, ",Seattle,WA,98122,47.60297419,-122.2934195,t
986,1455908,"27th Avenue South, ",Seattle,WA,98144,47.60568442,-122.2953598,t
987,8525825,"29th Avenue South, ",Seattle,WA,98144,47.59465847,-122.2954107,t
988,3463245,"34th Avenue, ",Seattle,WA,98122,47.60778218,-122.2892843,t
989,4172364,"-30th. Ave., Seattle, WA, United States",Seattle,WA,,47.60475367,-122.2943826,f
990,3728802,"36th Avenue, ",Seattle,WA,98122,47.60688433,-122.2872419,t
991,6512378,"29th Avenue South, ",Seattle,WA,98144,47.59254368,-122.2939382,t
992,785830,"33rd Ave, ",Seattle,WA,98122,47.6067369,-122.2900877,t
993,8616606,"29th Avenue South, ",Seattle,WA,98144,47.59220795,-122.2950032,t
994,5078244,"East Yesler Way, ",Seattle,WA,98122,47.60161607,-122.2943798,t
995,7921278,"28th Ave S, ",Seattle,WA,98144,47.59788774,-122.2969628,f
996,8016610,"28th Avenue South, ",Seattle,WA,98144,47.59481013,-122.2961645,t
997,4468524,"30th Avenue, ",Seattle,WA,98122,47.60429647,-122.2943586,t
998,8424532,"32nd Avenue, ",Seattle,WA,98122,47.60437922,-122.2911153,t
999,6990882,"Martin Luther King Junior Way South, ",Seattle,WA,98144,47.59697059,-122.2964817,t
1000,4017140,"29th Ave S, ",Seattle,WA,98144,47.59176832,-122.2943217,f
